{
    "type":  "Feature",
    "properties":  {
                       "Name":  "Cadnant ED",
                       "Area_Code":  "UTE",
                       "Area_Description":  "Unitary Authority Electoral Division",
                       "File_Name":  "GWYNEDD_-_GWYNEDD",
                       "Feature_Serial_Number":  286,
                       "Collection_Serial_Number":  286,
                       "Global_Polygon_ID":  142547,
                       "Admin_Unit_ID":  182792,
                       "Census_Code":  "W05001516",
                       "Hectares":  205.488,
                       "Non_Inland_Area":  0.0,
                       "Area_Type_Code":  "VA",
                       "Area_Type_Description":  "CIVIL VOTING AREA",
                       "Non_Area_Type_Code":  null,
                       "Non_Area_Type_Description":  null
                   },
    "geometry":  {
                     "type":  "MultiPolygon",
                     "coordinates":  [
                                         [
                                             [
                                                 [
                                                     -4.229346448360837,
                                                     53.156696889317146
                                                 ],
                                                 [
                                                     -4.22932516648555,
                                                     53.156662233523086
                                                 ],
                                                 [
                                                     -4.229205419588382,
                                                     53.156545741338427
                                                 ],
                                                 [
                                                     -4.229150423697336,
                                                     53.156464978022619
                                                 ],
                                                 [
                                                     -4.22912130796991,
                                                     53.156364854681996
                                                 ],
                                                 [
                                                     -4.229068530360701,
                                                     53.156298341619795
                                                 ],
                                                 [
                                                     -4.229113112143335,
                                                     53.156206725410946
                                                 ],
                                                 [
                                                     -4.229089189328478,
                                                     53.156149648237133
                                                 ],
                                                 [
                                                     -4.229032947535432,
                                                     53.156073402717901
                                                 ],
                                                 [
                                                     -4.229075290588958,
                                                     53.155938594211342
                                                 ],
                                                 [
                                                     -4.229123709300443,
                                                     53.155661658063103
                                                 ],
                                                 [
                                                     -4.229201161110926,
                                                     53.155309575806584
                                                 ],
                                                 [
                                                     -4.229274266219497,
                                                     53.154871287117068
                                                 ],
                                                 [
                                                     -4.229276571777911,
                                                     53.154858660362891
                                                 ],
                                                 [
                                                     -4.229407040386771,
                                                     53.154808578913453
                                                 ],
                                                 [
                                                     -4.229621353703417,
                                                     53.154701109933384
                                                 ],
                                                 [
                                                     -4.229969891790724,
                                                     53.154499535498765
                                                 ],
                                                 [
                                                     -4.230075492352486,
                                                     53.154459806398854
                                                 ],
                                                 [
                                                     -4.23028649551436,
                                                     53.154402732518001
                                                 ],
                                                 [
                                                     -4.230467121931105,
                                                     53.1542807031256
                                                 ],
                                                 [
                                                     -4.230557032698411,
                                                     53.15425475025021
                                                 ],
                                                 [
                                                     -4.23083885111486,
                                                     53.154065118936977
                                                 ],
                                                 [
                                                     -4.231307481054919,
                                                     53.153758733889127
                                                 ],
                                                 [
                                                     -4.231796350373803,
                                                     53.153464640942396
                                                 ],
                                                 [
                                                     -4.231875351431077,
                                                     53.153401949122404
                                                 ],
                                                 [
                                                     -4.232252335318781,
                                                     53.153088290409869
                                                 ],
                                                 [
                                                     -4.232385210075136,
                                                     53.152996814287995
                                                 ],
                                                 [
                                                     -4.232711539655934,
                                                     53.152914293058558
                                                 ],
                                                 [
                                                     -4.232846805993579,
                                                     53.152871308627553
                                                 ],
                                                 [
                                                     -4.23307119936711,
                                                     53.152756454186594
                                                 ],
                                                 [
                                                     -4.233204584178732,
                                                     53.152674854787712
                                                 ],
                                                 [
                                                     -4.23339424934876,
                                                     53.152582312016676
                                                 ],
                                                 [
                                                     -4.233584548614509,
                                                     53.15253290141645
                                                 ],
                                                 [
                                                     -4.233812906622874,
                                                     53.152494460783572
                                                 ],
                                                 [
                                                     -4.234145605220389,
                                                     53.152420714278193
                                                 ],
                                                 [
                                                     -4.234419644760648,
                                                     53.152397594075659
                                                 ],
                                                 [
                                                     -4.234548244250569,
                                                     53.152425739858629
                                                 ],
                                                 [
                                                     -4.234729829430645,
                                                     53.152381883708678
                                                 ],
                                                 [
                                                     -4.234863673895125,
                                                     53.152394650731416
                                                 ],
                                                 [
                                                     -4.234974071163985,
                                                     53.152362018013051
                                                 ],
                                                 [
                                                     -4.235187709685745,
                                                     53.152242057738484
                                                 ],
                                                 [
                                                     -4.235420466715263,
                                                     53.152231394934127
                                                 ],
                                                 [
                                                     -4.235529899605894,
                                                     53.152149343608023
                                                 ],
                                                 [
                                                     -4.235650700453489,
                                                     53.152027440694425
                                                 ],
                                                 [
                                                     -4.235781355457545,
                                                     53.152009706678221
                                                 ],
                                                 [
                                                     -4.235923616374564,
                                                     53.151982766351672
                                                 ],
                                                 [
                                                     -4.235947080887995,
                                                     53.151945473874392
                                                 ],
                                                 [
                                                     -4.236043301540116,
                                                     53.151839402137114
                                                 ],
                                                 [
                                                     -4.236120844860805,
                                                     53.151748871240535
                                                 ],
                                                 [
                                                     -4.236335116554884,
                                                     53.151757429287763
                                                 ],
                                                 [
                                                     -4.236395221767146,
                                                     53.151734728259605
                                                 ],
                                                 [
                                                     -4.236457646115613,
                                                     53.15166884011667
                                                 ],
                                                 [
                                                     -4.236438585479303,
                                                     53.151589202127845
                                                 ],
                                                 [
                                                     -4.236466374329551,
                                                     53.15152126837917
                                                 ],
                                                 [
                                                     -4.236629492396299,
                                                     53.151435421022796
                                                 ],
                                                 [
                                                     -4.236786673898634,
                                                     53.151410895631962
                                                 ],
                                                 [
                                                     -4.236872608610647,
                                                     53.151394000767382
                                                 ],
                                                 [
                                                     -4.236932901265988,
                                                     53.151374890481065
                                                 ],
                                                 [
                                                     -4.237017525150708,
                                                     53.151247464097594
                                                 ],
                                                 [
                                                     -4.23715276576948,
                                                     53.15120177880808
                                                 ],
                                                 [
                                                     -4.237310273026088,
                                                     53.151183538393369
                                                 ],
                                                 [
                                                     -4.237380361431595,
                                                     53.151148874782137
                                                 ],
                                                 [
                                                     -4.237397319398885,
                                                     53.151102715245628
                                                 ],
                                                 [
                                                     -4.237368440419934,
                                                     53.151035846444046
                                                 ],
                                                 [
                                                     -4.237386159367266,
                                                     53.150973493558737
                                                 ],
                                                 [
                                                     -4.237537426506275,
                                                     53.15094907832929
                                                 ],
                                                 [
                                                     -4.237673528463989,
                                                     53.15080621295332
                                                 ],
                                                 [
                                                     -4.237758152180723,
                                                     53.150764174874254
                                                 ],
                                                 [
                                                     -4.237832696350435,
                                                     53.150732213483167
                                                 ],
                                                 [
                                                     -4.237845810306735,
                                                     53.150695114305037
                                                 ],
                                                 [
                                                     -4.237868504566618,
                                                     53.150529303506978
                                                 ],
                                                 [
                                                     -4.237885721303164,
                                                     53.150485746373924
                                                 ],
                                                 [
                                                     -4.238243201023723,
                                                     53.150372064103323
                                                 ],
                                                 [
                                                     -4.238296738530096,
                                                     53.150336901981689
                                                 ],
                                                 [
                                                     -4.238422483987714,
                                                     53.150310268272015
                                                 ],
                                                 [
                                                     -4.238556925786884,
                                                     53.150249316401407
                                                 ],
                                                 [
                                                     -4.238807321422105,
                                                     53.150146544540263
                                                 ],
                                                 [
                                                     -4.23864350536229,
                                                     53.149932108906114
                                                 ],
                                                 [
                                                     -4.238691998601524,
                                                     53.1498853569475
                                                 ],
                                                 [
                                                     -4.238397389641868,
                                                     53.149626552002275
                                                 ],
                                                 [
                                                     -4.238253367214186,
                                                     53.149503334394886
                                                 ],
                                                 [
                                                     -4.237911586795096,
                                                     53.149200474499665
                                                 ],
                                                 [
                                                     -4.237937754078737,
                                                     53.149129873582751
                                                 ],
                                                 [
                                                     -4.237894576765163,
                                                     53.149074958251617
                                                 ],
                                                 [
                                                     -4.237741542971184,
                                                     53.14906525183703
                                                 ],
                                                 [
                                                     -4.237269838354798,
                                                     53.148651579346605
                                                 ],
                                                 [
                                                     -4.236975790290718,
                                                     53.148374784109556
                                                 ],
                                                 [
                                                     -4.236879375402328,
                                                     53.14838917970463
                                                 ],
                                                 [
                                                     -4.236776904005649,
                                                     53.148289448494339
                                                 ],
                                                 [
                                                     -4.236733914810113,
                                                     53.148152734884512
                                                 ],
                                                 [
                                                     -4.236760191107287,
                                                     53.148053370421238
                                                 ],
                                                 [
                                                     -4.236808351811013,
                                                     53.147914854870706
                                                 ],
                                                 [
                                                     -4.236938984198694,
                                                     53.14766692961684
                                                 ],
                                                 [
                                                     -4.237004903770099,
                                                     53.147668387071299
                                                 ],
                                                 [
                                                     -4.237268707845528,
                                                     53.147249877920224
                                                 ],
                                                 [
                                                     -4.237420245388735,
                                                     53.147029422701628
                                                 ],
                                                 [
                                                     -4.237624606414228,
                                                     53.146817052282358
                                                 ],
                                                 [
                                                     -4.237971791596811,
                                                     53.146534494482673
                                                 ],
                                                 [
                                                     -4.238079586232782,
                                                     53.146449775028991
                                                 ],
                                                 [
                                                     -4.238563973133833,
                                                     53.146247328020223
                                                 ],
                                                 [
                                                     -4.239428179182205,
                                                     53.145899313471993
                                                 ],
                                                 [
                                                     -4.239517739750212,
                                                     53.145867067486833
                                                 ],
                                                 [
                                                     -4.239486079336275,
                                                     53.145834406887992
                                                 ],
                                                 [
                                                     -4.239810277640213,
                                                     53.145368824576202
                                                 ],
                                                 [
                                                     -4.240961418885711,
                                                     53.143727015789608
                                                 ],
                                                 [
                                                     -4.241591751630019,
                                                     53.142793575108101
                                                 ],
                                                 [
                                                     -4.241558398680404,
                                                     53.142785215095635
                                                 ],
                                                 [
                                                     -4.240851799839574,
                                                     53.142625945559701
                                                 ],
                                                 [
                                                     -4.240930544433247,
                                                     53.142502132231151
                                                 ],
                                                 [
                                                     -4.24097155238116,
                                                     53.142371030207933
                                                 ],
                                                 [
                                                     -4.240973813465432,
                                                     53.14218483969298
                                                 ],
                                                 [
                                                     -4.241007280764274,
                                                     53.142107808688465
                                                 ],
                                                 [
                                                     -4.241053629402965,
                                                     53.142022446033764
                                                 ],
                                                 [
                                                     -4.241063864178678,
                                                     53.142017759677813
                                                 ],
                                                 [
                                                     -4.241723684355467,
                                                     53.141996345461145
                                                 ],
                                                 [
                                                     -4.242277943111828,
                                                     53.141988600935726
                                                 ],
                                                 [
                                                     -4.242346763500625,
                                                     53.141989101622492
                                                 ],
                                                 [
                                                     -4.244037264022268,
                                                     53.142005777017147
                                                 ],
                                                 [
                                                     -4.24732361509178,
                                                     53.141999495738581
                                                 ],
                                                 [
                                                     -4.2502023488291,
                                                     53.142034986488575
                                                 ],
                                                 [
                                                     -4.250789726138755,
                                                     53.142031070681007
                                                 ],
                                                 [
                                                     -4.251351101946299,
                                                     53.142013261994514
                                                 ],
                                                 [
                                                     -4.251631447243533,
                                                     53.141998970400891
                                                 ],
                                                 [
                                                     -4.251781759407017,
                                                     53.141985341141364
                                                 ],
                                                 [
                                                     -4.251930498604678,
                                                     53.141969943274788
                                                 ],
                                                 [
                                                     -4.252759033998144,
                                                     53.141832021604628
                                                 ],
                                                 [
                                                     -4.253031469177501,
                                                     53.141807990032852
                                                 ],
                                                 [
                                                     -4.253183776187623,
                                                     53.141804207617213
                                                 ],
                                                 [
                                                     -4.253385722853481,
                                                     53.141806676089665
                                                 ],
                                                 [
                                                     -4.254090249743833,
                                                     53.141810412254493
                                                 ],
                                                 [
                                                     -4.254674524237839,
                                                     53.141803839631628
                                                 ],
                                                 [
                                                     -4.254916983014032,
                                                     53.141779471617518
                                                 ],
                                                 [
                                                     -4.255115684040667,
                                                     53.141719979428068
                                                 ],
                                                 [
                                                     -4.2551919358291,
                                                     53.141690580987934
                                                 ],
                                                 [
                                                     -4.255321940246573,
                                                     53.141630591950054
                                                 ],
                                                 [
                                                     -4.255416168469716,
                                                     53.141574876208409
                                                 ],
                                                 [
                                                     -4.255526919411577,
                                                     53.141490983565276
                                                 ],
                                                 [
                                                     -4.255648528307395,
                                                     53.141386122345033
                                                 ],
                                                 [
                                                     -4.255940511507589,
                                                     53.141081276610009
                                                 ],
                                                 [
                                                     -4.256132875892501,
                                                     53.140898672596464
                                                 ],
                                                 [
                                                     -4.256214732273356,
                                                     53.140835101608303
                                                 ],
                                                 [
                                                     -4.256315810506603,
                                                     53.14076667159933
                                                 ],
                                                 [
                                                     -4.256417356082552,
                                                     53.140707131835612
                                                 ],
                                                 [
                                                     -4.256522001910279,
                                                     53.140650318583312
                                                 ],
                                                 [
                                                     -4.256682482689746,
                                                     53.140574470134375
                                                 ],
                                                 [
                                                     -4.256907741588625,
                                                     53.140478517576639
                                                 ],
                                                 [
                                                     -4.257152753530791,
                                                     53.140390190067876
                                                 ],
                                                 [
                                                     -4.257755624549116,
                                                     53.140252019107919
                                                 ],
                                                 [
                                                     -4.258022849266003,
                                                     53.140187626552425
                                                 ],
                                                 [
                                                     -4.258100766812555,
                                                     53.140161879970648
                                                 ],
                                                 [
                                                     -4.258238811650617,
                                                     53.140114318778089
                                                 ],
                                                 [
                                                     -4.258478961265204,
                                                     53.14001799163492
                                                 ],
                                                 [
                                                     -4.258814370181921,
                                                     53.139855228532241
                                                 ],
                                                 [
                                                     -4.259123068433489,
                                                     53.139726139843049
                                                 ],
                                                 [
                                                     -4.259462278962434,
                                                     53.139610041944437
                                                 ],
                                                 [
                                                     -4.259764654791029,
                                                     53.139529698019963
                                                 ],
                                                 [
                                                     -4.259974702388234,
                                                     53.139487060343392
                                                 ],
                                                 [
                                                     -4.260158609247936,
                                                     53.139458400597732
                                                 ],
                                                 [
                                                     -4.260310339583365,
                                                     53.139443833538408
                                                 ],
                                                 [
                                                     -4.260423701591948,
                                                     53.139438085042158
                                                 ],
                                                 [
                                                     -4.26066927175128,
                                                     53.139445106160231
                                                 ],
                                                 [
                                                     -4.261028660879493,
                                                     53.139483220067383
                                                 ],
                                                 [
                                                     -4.261267991997482,
                                                     53.139514626751748
                                                 ],
                                                 [
                                                     -4.261412762065718,
                                                     53.139538840664024
                                                 ],
                                                 [
                                                     -4.261671712255674,
                                                     53.139629196691686
                                                 ],
                                                 [
                                                     -4.261954201334728,
                                                     53.139768630334551
                                                 ],
                                                 [
                                                     -4.262591029858052,
                                                     53.140250973289611
                                                 ],
                                                 [
                                                     -4.262699513820017,
                                                     53.140323604655549
                                                 ],
                                                 [
                                                     -4.262843395325357,
                                                     53.140415246717836
                                                 ],
                                                 [
                                                     -4.262907999312702,
                                                     53.140448173956031
                                                 ],
                                                 [
                                                     -4.26302059880979,
                                                     53.140486480393555
                                                 ],
                                                 [
                                                     -4.263145940843923,
                                                     53.14050926436024
                                                 ],
                                                 [
                                                     -4.263558517940186,
                                                     53.140536472883277
                                                 ],
                                                 [
                                                     -4.26479468552398,
                                                     53.140557896690133
                                                 ],
                                                 [
                                                     -4.265130207174467,
                                                     53.140568589639209
                                                 ],
                                                 [
                                                     -4.265475904727794,
                                                     53.140601647953929
                                                 ],
                                                 [
                                                     -4.265960646089876,
                                                     53.14072095305859
                                                 ],
                                                 [
                                                     -4.265971303312541,
                                                     53.140724345620207
                                                 ],
                                                 [
                                                     -4.265964048158995,
                                                     53.140740667407293
                                                 ],
                                                 [
                                                     -4.266092465759669,
                                                     53.140782200531042
                                                 ],
                                                 [
                                                     -4.266254151689279,
                                                     53.140847537352585
                                                 ],
                                                 [
                                                     -4.266435716299214,
                                                     53.140929718409012
                                                 ],
                                                 [
                                                     -4.266663748838458,
                                                     53.141052882226816
                                                 ],
                                                 [
                                                     -4.266921840674589,
                                                     53.141185280366301
                                                 ],
                                                 [
                                                     -4.267246097440707,
                                                     53.141338421909872
                                                 ],
                                                 [
                                                     -4.267242898380057,
                                                     53.141532719988703
                                                 ],
                                                 [
                                                     -4.267223014911903,
                                                     53.141637363764467
                                                 ],
                                                 [
                                                     -4.267147885478431,
                                                     53.141856403058455
                                                 ],
                                                 [
                                                     -4.26709568536371,
                                                     53.141972447908728
                                                 ],
                                                 [
                                                     -4.266901803048515,
                                                     53.1422377919532
                                                 ],
                                                 [
                                                     -4.266645802736164,
                                                     53.14254566432173
                                                 ],
                                                 [
                                                     -4.266263442134322,
                                                     53.143064472162521
                                                 ],
                                                 [
                                                     -4.266021777205637,
                                                     53.143415304721238
                                                 ],
                                                 [
                                                     -4.265808558893316,
                                                     53.143683621427435
                                                 ],
                                                 [
                                                     -4.265793359605264,
                                                     53.143706381774912
                                                 ],
                                                 [
                                                     -4.265730322961439,
                                                     53.143787667477632
                                                 ],
                                                 [
                                                     -4.265600952317976,
                                                     53.143943831679969
                                                 ],
                                                 [
                                                     -4.265442629581649,
                                                     53.144116814076192
                                                 ],
                                                 [
                                                     -4.265343496731894,
                                                     53.144222067688816
                                                 ],
                                                 [
                                                     -4.265171953544627,
                                                     53.144401593170883
                                                 ],
                                                 [
                                                     -4.264928695277894,
                                                     53.144638122499025
                                                 ],
                                                 [
                                                     -4.264663286176268,
                                                     53.144877858162914
                                                 ],
                                                 [
                                                     -4.264254242212603,
                                                     53.145148189542617
                                                 ],
                                                 [
                                                     -4.263683499048431,
                                                     53.145527658020562
                                                 ],
                                                 [
                                                     -4.262700325316681,
                                                     53.146083136344018
                                                 ],
                                                 [
                                                     -4.262473922088368,
                                                     53.146242039766243
                                                 ],
                                                 [
                                                     -4.262158151217642,
                                                     53.146464750484803
                                                 ],
                                                 [
                                                     -4.261942040216415,
                                                     53.146591998063045
                                                 ],
                                                 [
                                                     -4.26177394253295,
                                                     53.146666289904779
                                                 ],
                                                 [
                                                     -4.261632154897088,
                                                     53.146727407992259
                                                 ],
                                                 [
                                                     -4.261480998708249,
                                                     53.146781513888889
                                                 ],
                                                 [
                                                     -4.261256833584556,
                                                     53.146842399420485
                                                 ],
                                                 [
                                                     -4.26107261295576,
                                                     53.146865673795084
                                                 ],
                                                 [
                                                     -4.260537284389001,
                                                     53.146931982317049
                                                 ],
                                                 [
                                                     -4.260291497499757,
                                                     53.146983275181789
                                                 ],
                                                 [
                                                     -4.260000901329223,
                                                     53.146967799616768
                                                 ],
                                                 [
                                                     -4.259960775426598,
                                                     53.146965662853432
                                                 ],
                                                 [
                                                     -4.259578928238634,
                                                     53.146984911870817
                                                 ],
                                                 [
                                                     -4.259408944471614,
                                                     53.146964678839836
                                                 ],
                                                 [
                                                     -4.259158914922515,
                                                     53.146960436685795
                                                 ],
                                                 [
                                                     -4.258869662412811,
                                                     53.14703342937041
                                                 ],
                                                 [
                                                     -4.258550437184692,
                                                     53.147162626674223
                                                 ],
                                                 [
                                                     -4.25828103663026,
                                                     53.147329618642907
                                                 ],
                                                 [
                                                     -4.257906731870573,
                                                     53.147548843909981
                                                 ],
                                                 [
                                                     -4.25745010799951,
                                                     53.147794887404501
                                                 ],
                                                 [
                                                     -4.257218948189215,
                                                     53.147922411627256
                                                 ],
                                                 [
                                                     -4.256978609271033,
                                                     53.148016042949038
                                                 ],
                                                 [
                                                     -4.256686367123159,
                                                     53.148116860682677
                                                 ],
                                                 [
                                                     -4.256221136452162,
                                                     53.148257808840562
                                                 ],
                                                 [
                                                     -4.255830838825966,
                                                     53.14837225760288
                                                 ],
                                                 [
                                                     -4.255716143810613,
                                                     53.148409485904786
                                                 ],
                                                 [
                                                     -4.255556217020056,
                                                     53.148468244013742
                                                 ],
                                                 [
                                                     -4.255178503907446,
                                                     53.148622898537894
                                                 ],
                                                 [
                                                     -4.254961183101728,
                                                     53.148727686026071
                                                 ],
                                                 [
                                                     -4.254349739255631,
                                                     53.149045859487138
                                                 ],
                                                 [
                                                     -4.254018387385198,
                                                     53.14928771856205
                                                 ],
                                                 [
                                                     -4.253412250242837,
                                                     53.149763980289485
                                                 ],
                                                 [
                                                     -4.253041666504172,
                                                     53.150055116548316
                                                 ],
                                                 [
                                                     -4.252637527230672,
                                                     53.150334302116441
                                                 ],
                                                 [
                                                     -4.252408664913731,
                                                     53.150477952327066
                                                 ],
                                                 [
                                                     -4.252246034158704,
                                                     53.15057010421787
                                                 ],
                                                 [
                                                     -4.25206926542661,
                                                     53.150648950743495
                                                 ],
                                                 [
                                                     -4.251864931102791,
                                                     53.15074539579183
                                                 ],
                                                 [
                                                     -4.250949457803319,
                                                     53.151115143624502
                                                 ],
                                                 [
                                                     -4.250671458183939,
                                                     53.15123194500044
                                                 ],
                                                 [
                                                     -4.250632190640834,
                                                     53.151249309827797
                                                 ],
                                                 [
                                                     -4.250427282042104,
                                                     53.151339923631703
                                                 ],
                                                 [
                                                     -4.250096445943349,
                                                     53.151505271735836
                                                 ],
                                                 [
                                                     -4.249770049556776,
                                                     53.151670624888752
                                                 ],
                                                 [
                                                     -4.249671543845536,
                                                     53.151730010332756
                                                 ],
                                                 [
                                                     -4.249626588009603,
                                                     53.151756933538451
                                                 ],
                                                 [
                                                     -4.249202194765107,
                                                     53.152022101748855
                                                 ],
                                                 [
                                                     -4.248972596838655,
                                                     53.152149579068116
                                                 ],
                                                 [
                                                     -4.248628081492015,
                                                     53.152340436793608
                                                 ],
                                                 [
                                                     -4.248501611458632,
                                                     53.152410257458357
                                                 ],
                                                 [
                                                     -4.248416969220984,
                                                     53.152450517092454
                                                 ],
                                                 [
                                                     -4.248269063842961,
                                                     53.152510852443889
                                                 ],
                                                 [
                                                     -4.248179985646881,
                                                     53.152552094779942
                                                 ],
                                                 [
                                                     -4.247945801514613,
                                                     53.152650022767034
                                                 ],
                                                 [
                                                     -4.247464650121638,
                                                     53.152844310627763
                                                 ],
                                                 [
                                                     -4.247216975919886,
                                                     53.15293919221056
                                                 ],
                                                 [
                                                     -4.246884387906207,
                                                     53.153044810896176
                                                 ],
                                                 [
                                                     -4.246212564103414,
                                                     53.153255461502383
                                                 ],
                                                 [
                                                     -4.245701928307933,
                                                     53.153424408385199
                                                 ],
                                                 [
                                                     -4.245443837106038,
                                                     53.153501784219621
                                                 ],
                                                 [
                                                     -4.24464750705032,
                                                     53.153702610767056
                                                 ],
                                                 [
                                                     -4.244262450768425,
                                                     53.153790747782359
                                                 ],
                                                 [
                                                     -4.243992150291154,
                                                     53.153852617508235
                                                 ],
                                                 [
                                                     -4.243608872184097,
                                                     53.153942550300812
                                                 ],
                                                 [
                                                     -4.243280095352474,
                                                     53.154019692880368
                                                 ],
                                                 [
                                                     -4.242768703990434,
                                                     53.154148434992806
                                                 ],
                                                 [
                                                     -4.242644812690603,
                                                     53.154173989943324
                                                 ],
                                                 [
                                                     -4.242260519855948,
                                                     53.154253258115567
                                                 ],
                                                 [
                                                     -4.241453922187474,
                                                     53.154442033370302
                                                 ],
                                                 [
                                                     -4.240592382578355,
                                                     53.154671365594773
                                                 ],
                                                 [
                                                     -4.239658594440937,
                                                     53.154863311106546
                                                 ],
                                                 [
                                                     -4.239571364703523,
                                                     53.154883827735205
                                                 ],
                                                 [
                                                     -4.239093273344308,
                                                     53.154979199719548
                                                 ],
                                                 [
                                                     -4.238822662672463,
                                                     53.15504001686709
                                                 ],
                                                 [
                                                     -4.238612253396829,
                                                     53.155105993026879
                                                 ],
                                                 [
                                                     -4.238397659840017,
                                                     53.155179238376583
                                                 ],
                                                 [
                                                     -4.238046451159585,
                                                     53.155328846225778
                                                 ],
                                                 [
                                                     -4.237750816493801,
                                                     53.155453948453015
                                                 ],
                                                 [
                                                     -4.23758259044963,
                                                     53.155527218807187
                                                 ],
                                                 [
                                                     -4.237408485439086,
                                                     53.155572826685137
                                                 ],
                                                 [
                                                     -4.236139436528656,
                                                     53.155904162146498
                                                 ],
                                                 [
                                                     -4.235821151799687,
                                                     53.155968564306605
                                                 ],
                                                 [
                                                     -4.235425106417225,
                                                     53.156031730486738
                                                 ],
                                                 [
                                                     -4.234980853183002,
                                                     53.156090406881276
                                                 ],
                                                 [
                                                     -4.234706819373735,
                                                     53.156171053288297
                                                 ],
                                                 [
                                                     -4.234464206945082,
                                                     53.156251199143149
                                                 ],
                                                 [
                                                     -4.234129078797126,
                                                     53.156335687366557
                                                 ],
                                                 [
                                                     -4.234118771095109,
                                                     53.15634273454716
                                                 ],
                                                 [
                                                     -4.233747079001448,
                                                     53.156407840365517
                                                 ],
                                                 [
                                                     -4.233447860611473,
                                                     53.156435392587312
                                                 ],
                                                 [
                                                     -4.233138924116127,
                                                     53.156463036459378
                                                 ],
                                                 [
                                                     -4.232786704428564,
                                                     53.156478095055597
                                                 ],
                                                 [
                                                     -4.232348440123702,
                                                     53.156492428665352
                                                 ],
                                                 [
                                                     -4.231703474249758,
                                                     53.156509916846105
                                                 ],
                                                 [
                                                     -4.231685329582121,
                                                     53.156509552142197
                                                 ],
                                                 [
                                                     -4.231655406418912,
                                                     53.156514216557206
                                                 ],
                                                 [
                                                     -4.231286450713686,
                                                     53.156495965923142
                                                 ],
                                                 [
                                                     -4.231125968447742,
                                                     53.156488187692169
                                                 ],
                                                 [
                                                     -4.230647800561789,
                                                     53.156497149181291
                                                 ],
                                                 [
                                                     -4.230076899164945,
                                                     53.156534810515282
                                                 ],
                                                 [
                                                     -4.230051750981326,
                                                     53.156539776169886
                                                 ],
                                                 [
                                                     -4.229715727073044,
                                                     53.15660719145751
                                                 ],
                                                 [
                                                     -4.229346448360837,
                                                     53.156696889317146
                                                 ]
                                             ]
                                         ]
                                     ]
                 }
}