{
    "type":  "Feature",
    "properties":  {
                       "Name":  "Hendre ED",
                       "Area_Code":  "UTE",
                       "Area_Description":  "Unitary Authority Electoral Division",
                       "File_Name":  "GWYNEDD_-_GWYNEDD",
                       "Feature_Serial_Number":  1071,
                       "Collection_Serial_Number":  1071,
                       "Global_Polygon_ID":  142529,
                       "Admin_Unit_ID":  182774,
                       "Census_Code":  "W05001542",
                       "Hectares":  58.933,
                       "Non_Inland_Area":  0.0,
                       "Area_Type_Code":  "VA",
                       "Area_Type_Description":  "CIVIL VOTING AREA",
                       "Non_Area_Type_Code":  null,
                       "Non_Area_Type_Description":  null
                   },
    "geometry":  {
                     "type":  "MultiPolygon",
                     "coordinates":  [
                                         [
                                             [
                                                 [
                                                     -4.255573064711618,
                                                     53.134383665125235
                                                 ],
                                                 [
                                                     -4.255862907348371,
                                                     53.134067084961487
                                                 ],
                                                 [
                                                     -4.256041776223468,
                                                     53.133914487393206
                                                 ],
                                                 [
                                                     -4.256163599836579,
                                                     53.13381411583061
                                                 ],
                                                 [
                                                     -4.256344349442574,
                                                     53.133697435882631
                                                 ],
                                                 [
                                                     -4.256508514307045,
                                                     53.133605338386012
                                                 ],
                                                 [
                                                     -4.256675222973198,
                                                     53.133507709760636
                                                 ],
                                                 [
                                                     -4.256962941411747,
                                                     53.133291926400574
                                                 ],
                                                 [
                                                     -4.257077820691554,
                                                     53.133087419741159
                                                 ],
                                                 [
                                                     -4.25715105526348,
                                                     53.132916151933777
                                                 ],
                                                 [
                                                     -4.25725975148834,
                                                     53.132793556283204
                                                 ],
                                                 [
                                                     -4.257374091526927,
                                                     53.132722177204037
                                                 ],
                                                 [
                                                     -4.257439522154838,
                                                     53.132630153894731
                                                 ],
                                                 [
                                                     -4.257445669885952,
                                                     53.132519390590033
                                                 ],
                                                 [
                                                     -4.257446835973061,
                                                     53.132485212885491
                                                 ],
                                                 [
                                                     -4.257448196281438,
                                                     53.132339575624542
                                                 ],
                                                 [
                                                     -4.257415667585709,
                                                     53.132203480417367
                                                 ],
                                                 [
                                                     -4.257395540518717,
                                                     53.132104091825646
                                                 ],
                                                 [
                                                     -4.257386088187065,
                                                     53.132010791685431
                                                 ],
                                                 [
                                                     -4.257421056732578,
                                                     53.131906672602959
                                                 ],
                                                 [
                                                     -4.257505724267411,
                                                     53.131781926918904
                                                 ],
                                                 [
                                                     -4.257512500052646,
                                                     53.131770112889534
                                                 ],
                                                 [
                                                     -4.257569440758173,
                                                     53.131685441469997
                                                 ],
                                                 [
                                                     -4.257671109457782,
                                                     53.131628683416665
                                                 ],
                                                 [
                                                     -4.257779030882201,
                                                     53.131550145730102
                                                 ],
                                                 [
                                                     -4.257991677491118,
                                                     53.131527235613369
                                                 ],
                                                 [
                                                     -4.258295716020712,
                                                     53.131481917121405
                                                 ],
                                                 [
                                                     -4.258528165425198,
                                                     53.131467618467845
                                                 ],
                                                 [
                                                     -4.258753592276672,
                                                     53.131404016986934
                                                 ],
                                                 [
                                                     -4.258921093175903,
                                                     53.131321740907438
                                                 ],
                                                 [
                                                     -4.259017600495732,
                                                     53.131194880355991
                                                 ],
                                                 [
                                                     -4.259304679267076,
                                                     53.130967418578251
                                                 ],
                                                 [
                                                     -4.259580624416415,
                                                     53.130842544388528
                                                 ],
                                                 [
                                                     -4.259876969864735,
                                                     53.130735348497325
                                                 ],
                                                 [
                                                     -4.26011787016922,
                                                     53.130654373175943
                                                 ],
                                                 [
                                                     -4.260285409975859,
                                                     53.130626921921547
                                                 ],
                                                 [
                                                     -4.26060123608079,
                                                     53.130578588181237
                                                 ],
                                                 [
                                                     -4.260831244550803,
                                                     53.130574218664478
                                                 ],
                                                 [
                                                     -4.261009361089442,
                                                     53.130551060007065
                                                 ],
                                                 [
                                                     -4.26120128939567,
                                                     53.130476405661497
                                                 ],
                                                 [
                                                     -4.261543872108557,
                                                     53.130282847564665
                                                 ],
                                                 [
                                                     -4.261757153141773,
                                                     53.130131385224487
                                                 ],
                                                 [
                                                     -4.261846156323379,
                                                     53.130030822187557
                                                 ],
                                                 [
                                                     -4.261909450300537,
                                                     53.129928859651727
                                                 ],
                                                 [
                                                     -4.261950301494215,
                                                     53.129737530392688
                                                 ],
                                                 [
                                                     -4.26196372915452,
                                                     53.129624830148359
                                                 ],
                                                 [
                                                     -4.262014195956191,
                                                     53.129417138909808
                                                 ],
                                                 [
                                                     -4.262069959571448,
                                                     53.12931262302957
                                                 ],
                                                 [
                                                     -4.262054412875254,
                                                     53.129187980637731
                                                 ],
                                                 [
                                                     -4.261902970813702,
                                                     53.128951679038245
                                                 ],
                                                 [
                                                     -4.261862394823737,
                                                     53.12891829464823
                                                 ],
                                                 [
                                                     -4.26171570956051,
                                                     53.128800638379424
                                                 ],
                                                 [
                                                     -4.261548132427784,
                                                     53.128569137568064
                                                 ],
                                                 [
                                                     -4.261405284477213,
                                                     53.128496350045694
                                                 ],
                                                 [
                                                     -4.261231289064589,
                                                     53.128400695097056
                                                 ],
                                                 [
                                                     -4.26071043116715,
                                                     53.128132850797705
                                                 ],
                                                 [
                                                     -4.260533604432249,
                                                     53.128037247737815
                                                 ],
                                                 [
                                                     -4.260314108990467,
                                                     53.127901199131905
                                                 ],
                                                 [
                                                     -4.259937008580798,
                                                     53.127749177884091
                                                 ],
                                                 [
                                                     -4.259531048766867,
                                                     53.127589703315508
                                                 ],
                                                 [
                                                     -4.259334274494512,
                                                     53.127487287222223
                                                 ],
                                                 [
                                                     -4.259281804223225,
                                                     53.127455025992603
                                                 ],
                                                 [
                                                     -4.259149571554614,
                                                     53.127384731549547
                                                 ],
                                                 [
                                                     -4.25908690619051,
                                                     53.12730142990489
                                                 ],
                                                 [
                                                     -4.259082807058005,
                                                     53.127223309162176
                                                 ],
                                                 [
                                                     -4.259123990404941,
                                                     53.127153227080633
                                                 ],
                                                 [
                                                     -4.259228130528872,
                                                     53.127087433307082
                                                 ],
                                                 [
                                                     -4.259460165243873,
                                                     53.127009322911931
                                                 ],
                                                 [
                                                     -4.259931553270161,
                                                     53.126933857606218
                                                 ],
                                                 [
                                                     -4.260399562249702,
                                                     53.126880925626885
                                                 ],
                                                 [
                                                     -4.26076652886697,
                                                     53.126865865297283
                                                 ],
                                                 [
                                                     -4.261051691171426,
                                                     53.126917074004297
                                                 ],
                                                 [
                                                     -4.261183814743199,
                                                     53.127013434922517
                                                 ],
                                                 [
                                                     -4.261231312439336,
                                                     53.127206771476693
                                                 ],
                                                 [
                                                     -4.26127435746335,
                                                     53.127427965597391
                                                 ],
                                                 [
                                                     -4.261329144697681,
                                                     53.127588804341897
                                                 ],
                                                 [
                                                     -4.261451624107049,
                                                     53.127672765439421
                                                 ],
                                                 [
                                                     -4.261620347224805,
                                                     53.127724387389428
                                                 ],
                                                 [
                                                     -4.261696624868391,
                                                     53.12772653315281
                                                 ],
                                                 [
                                                     -4.262102098673565,
                                                     53.127705344127349
                                                 ],
                                                 [
                                                     -4.262502587662605,
                                                     53.127645597385346
                                                 ],
                                                 [
                                                     -4.262724846897836,
                                                     53.127609013950341
                                                 ],
                                                 [
                                                     -4.263023022875561,
                                                     53.127593456531045
                                                 ],
                                                 [
                                                     -4.263400212547533,
                                                     53.127632123108199
                                                 ],
                                                 [
                                                     -4.263854089247141,
                                                     53.127678318746483
                                                 ],
                                                 [
                                                     -4.264311539192263,
                                                     53.127736218294963
                                                 ],
                                                 [
                                                     -4.264353608584313,
                                                     53.127741709645846
                                                 ],
                                                 [
                                                     -4.264738936908302,
                                                     53.127844083326053
                                                 ],
                                                 [
                                                     -4.264928044110608,
                                                     53.127920414464882
                                                 ],
                                                 [
                                                     -4.265026005839208,
                                                     53.128008850343967
                                                 ],
                                                 [
                                                     -4.265076491611916,
                                                     53.128125976307679
                                                 ],
                                                 [
                                                     -4.265094916401718,
                                                     53.128205554998651
                                                 ],
                                                 [
                                                     -4.265198835066326,
                                                     53.12828636093252
                                                 ],
                                                 [
                                                     -4.265379663022809,
                                                     53.128385685940351
                                                 ],
                                                 [
                                                     -4.265659966941184,
                                                     53.128528957054364
                                                 ],
                                                 [
                                                     -4.265803257999174,
                                                     53.128588863265712
                                                 ],
                                                 [
                                                     -4.266067631775372,
                                                     53.128652340115224
                                                 ],
                                                 [
                                                     -4.266283240918633,
                                                     53.128691053490016
                                                 ],
                                                 [
                                                     -4.266557997968319,
                                                     53.128771460146567
                                                 ],
                                                 [
                                                     -4.266853524579263,
                                                     53.128885725099892
                                                 ],
                                                 [
                                                     -4.267172972518947,
                                                     53.129093736116616
                                                 ],
                                                 [
                                                     -4.267355460541028,
                                                     53.129224427391378
                                                 ],
                                                 [
                                                     -4.267591373082756,
                                                     53.129468284374148
                                                 ],
                                                 [
                                                     -4.267764531409267,
                                                     53.12960200654021
                                                 ],
                                                 [
                                                     -4.268068562986734,
                                                     53.129787472915105
                                                 ],
                                                 [
                                                     -4.268364167674138,
                                                     53.129993080617886
                                                 ],
                                                 [
                                                     -4.268575412282352,
                                                     53.130128931160364
                                                 ],
                                                 [
                                                     -4.268774469972918,
                                                     53.130213629577035
                                                 ],
                                                 [
                                                     -4.269027038650755,
                                                     53.130322998979096
                                                 ],
                                                 [
                                                     -4.269121184776712,
                                                     53.130398278654297
                                                 ],
                                                 [
                                                     -4.269209392564719,
                                                     53.130510972195133
                                                 ],
                                                 [
                                                     -4.269289863507438,
                                                     53.130644937416378
                                                 ],
                                                 [
                                                     -4.269396306570449,
                                                     53.130743390291173
                                                 ],
                                                 [
                                                     -4.269531814281494,
                                                     53.130816929629425
                                                 ],
                                                 [
                                                     -4.269696223161098,
                                                     53.130862513219256
                                                 ],
                                                 [
                                                     -4.269866856910097,
                                                     53.130882095637567
                                                 ],
                                                 [
                                                     -4.269898919270891,
                                                     53.131058090369798
                                                 ],
                                                 [
                                                     -4.269915728783471,
                                                     53.131232853866038
                                                 ],
                                                 [
                                                     -4.269920695781412,
                                                     53.131423067601155
                                                 ],
                                                 [
                                                     -4.269939067557624,
                                                     53.131675447021209
                                                 ],
                                                 [
                                                     -4.269936170909517,
                                                     53.131812524154071
                                                 ],
                                                 [
                                                     -4.269897934828667,
                                                     53.131923191960432
                                                 ],
                                                 [
                                                     -4.269837251438254,
                                                     53.132048871203928
                                                 ],
                                                 [
                                                     -4.269810428088406,
                                                     53.132212286897605
                                                 ],
                                                 [
                                                     -4.269811262442403,
                                                     53.132372129828006
                                                 ],
                                                 [
                                                     -4.269847490857941,
                                                     53.132723129171751
                                                 ],
                                                 [
                                                     -4.269866953911183,
                                                     53.13303219986534
                                                 ],
                                                 [
                                                     -4.269859946236076,
                                                     53.133475371738385
                                                 ],
                                                 [
                                                     -4.269858401974015,
                                                     53.133830135814947
                                                 ],
                                                 [
                                                     -4.269858707990274,
                                                     53.134123966290161
                                                 ],
                                                 [
                                                     -4.269848485360377,
                                                     53.13454659938477
                                                 ],
                                                 [
                                                     -4.269835073160595,
                                                     53.134731882308728
                                                 ],
                                                 [
                                                     -4.26975987632225,
                                                     53.13489013007672
                                                 ],
                                                 [
                                                     -4.269674364950933,
                                                     53.13499681190887
                                                 ],
                                                 [
                                                     -4.269604951945234,
                                                     53.13507273617325
                                                 ],
                                                 [
                                                     -4.26951281701103,
                                                     53.13508132006487
                                                 ],
                                                 [
                                                     -4.269454979311554,
                                                     53.135098148173157
                                                 ],
                                                 [
                                                     -4.269358062905101,
                                                     53.135126348732264
                                                 ],
                                                 [
                                                     -4.269294763147967,
                                                     53.135144782402911
                                                 ],
                                                 [
                                                     -4.269253667646853,
                                                     53.13515675074234
                                                 ],
                                                 [
                                                     -4.269020711526842,
                                                     53.135227096071006
                                                 ],
                                                 [
                                                     -4.268835603491231,
                                                     53.135283401984452
                                                 ],
                                                 [
                                                     -4.268574125702436,
                                                     53.135362921468094
                                                 ],
                                                 [
                                                     -4.268473664508733,
                                                     53.135280771257662
                                                 ],
                                                 [
                                                     -4.268414196839406,
                                                     53.135406249346019
                                                 ],
                                                 [
                                                     -4.26829455133788,
                                                     53.13544233574337
                                                 ],
                                                 [
                                                     -4.26802727510747,
                                                     53.13552250398044
                                                 ],
                                                 [
                                                     -4.267854912277823,
                                                     53.135573890165993
                                                 ],
                                                 [
                                                     -4.267800327662725,
                                                     53.135758318296681
                                                 ],
                                                 [
                                                     -4.267779261809677,
                                                     53.135833757107562
                                                 ],
                                                 [
                                                     -4.267551816295648,
                                                     53.13591173208652
                                                 ],
                                                 [
                                                     -4.267370337948127,
                                                     53.135920899011033
                                                 ],
                                                 [
                                                     -4.267141239904483,
                                                     53.135897193020604
                                                 ],
                                                 [
                                                     -4.267040215468652,
                                                     53.135886747796057
                                                 ],
                                                 [
                                                     -4.266878573650613,
                                                     53.135866989904365
                                                 ],
                                                 [
                                                     -4.266751180843688,
                                                     53.135941733129812
                                                 ],
                                                 [
                                                     -4.266585655504429,
                                                     53.135983423565527
                                                 ],
                                                 [
                                                     -4.266251515471562,
                                                     53.136068288527525
                                                 ],
                                                 [
                                                     -4.266121479058656,
                                                     53.136107875639468
                                                 ],
                                                 [
                                                     -4.266002882094021,
                                                     53.136154379991709
                                                 ],
                                                 [
                                                     -4.265860835232243,
                                                     53.136221313924914
                                                 ],
                                                 [
                                                     -4.265516814797694,
                                                     53.13641912277695
                                                 ],
                                                 [
                                                     -4.265383621013305,
                                                     53.136503966541028
                                                 ],
                                                 [
                                                     -4.265179084336654,
                                                     53.136646309199399
                                                 ],
                                                 [
                                                     -4.265114307751889,
                                                     53.136697833733066
                                                 ],
                                                 [
                                                     -4.264501141702418,
                                                     53.136514054291013
                                                 ],
                                                 [
                                                     -4.264104243105292,
                                                     53.136385791610202
                                                 ],
                                                 [
                                                     -4.263829933909729,
                                                     53.136286744896651
                                                 ],
                                                 [
                                                     -4.263562680891386,
                                                     53.136181181595809
                                                 ],
                                                 [
                                                     -4.263190891308902,
                                                     53.136019271728287
                                                 ],
                                                 [
                                                     -4.262802644575397,
                                                     53.135858482813688
                                                 ],
                                                 [
                                                     -4.262328228587175,
                                                     53.135678746930516
                                                 ],
                                                 [
                                                     -4.261857313209113,
                                                     53.13550694187149
                                                 ],
                                                 [
                                                     -4.261377484378495,
                                                     53.135338990623609
                                                 ],
                                                 [
                                                     -4.261067207083945,
                                                     53.135237834801451
                                                 ],
                                                 [
                                                     -4.260848565496155,
                                                     53.135172778344788
                                                 ],
                                                 [
                                                     -4.260624173600813,
                                                     53.135113223473205
                                                 ],
                                                 [
                                                     -4.260156307754738,
                                                     53.135001575001162
                                                 ],
                                                 [
                                                     -4.259195697902673,
                                                     53.134787915603525
                                                 ],
                                                 [
                                                     -4.258675703254668,
                                                     53.134706913766472
                                                 ],
                                                 [
                                                     -4.258044316649054,
                                                     53.134640696857964
                                                 ],
                                                 [
                                                     -4.25680398886808,
                                                     53.134536590213145
                                                 ],
                                                 [
                                                     -4.255952633805012,
                                                     53.134438489763795
                                                 ],
                                                 [
                                                     -4.255573064711618,
                                                     53.134383665125235
                                                 ]
                                             ]
                                         ]
                                     ]
                 }
}