{
    "type":  "Feature",
    "properties":  {
                       "Name":  "Llanrug ED",
                       "Area_Code":  "UTE",
                       "Area_Description":  "Unitary Authority Electoral Division",
                       "File_Name":  "GWYNEDD_-_GWYNEDD",
                       "Feature_Serial_Number":  288,
                       "Collection_Serial_Number":  288,
                       "Global_Polygon_ID":  64951,
                       "Admin_Unit_ID":  25692,
                       "Census_Code":  "W05001547",
                       "Hectares":  188.305,
                       "Non_Inland_Area":  0.0,
                       "Area_Type_Code":  "VA",
                       "Area_Type_Description":  "CIVIL VOTING AREA",
                       "Non_Area_Type_Code":  null,
                       "Non_Area_Type_Description":  null
                   },
    "geometry":  {
                     "type":  "MultiPolygon",
                     "coordinates":  [
                                         [
                                             [
                                                 [
                                                     -4.175119832302572,
                                                     53.149530204034662
                                                 ],
                                                 [
                                                     -4.175397142993284,
                                                     53.149483791336394
                                                 ],
                                                 [
                                                     -4.175358680755965,
                                                     53.149403510062811
                                                 ],
                                                 [
                                                     -4.175090577452643,
                                                     53.148832087914194
                                                 ],
                                                 [
                                                     -4.175073732174792,
                                                     53.148796442614341
                                                 ],
                                                 [
                                                     -4.175216325334151,
                                                     53.148687776533976
                                                 ],
                                                 [
                                                     -4.174859963258589,
                                                     53.148470392583221
                                                 ],
                                                 [
                                                     -4.174856104647069,
                                                     53.148394064160861
                                                 ],
                                                 [
                                                     -4.174711934508926,
                                                     53.148176397884058
                                                 ],
                                                 [
                                                     -4.174901753854223,
                                                     53.147906788929532
                                                 ],
                                                 [
                                                     -4.175722427668312,
                                                     53.148255093513981
                                                 ],
                                                 [
                                                     -4.175802968912834,
                                                     53.148282383595237
                                                 ],
                                                 [
                                                     -4.17621520205309,
                                                     53.148419557189214
                                                 ],
                                                 [
                                                     -4.176970647104276,
                                                     53.14866019837423
                                                 ],
                                                 [
                                                     -4.177095357266746,
                                                     53.148700161397798
                                                 ],
                                                 [
                                                     -4.177622902112551,
                                                     53.148842501725419
                                                 ],
                                                 [
                                                     -4.177965682997018,
                                                     53.14852335080657
                                                 ],
                                                 [
                                                     -4.178255223917342,
                                                     53.148068463275813
                                                 ],
                                                 [
                                                     -4.178264876055751,
                                                     53.148052108665233
                                                 ],
                                                 [
                                                     -4.178413314659355,
                                                     53.147647530282981
                                                 ],
                                                 [
                                                     -4.17833755826435,
                                                     53.147390865731992
                                                 ],
                                                 [
                                                     -4.178318082504166,
                                                     53.1471547426802
                                                 ],
                                                 [
                                                     -4.178026338626093,
                                                     53.147210415417696
                                                 ],
                                                 [
                                                     -4.178282681108468,
                                                     53.146986412805894
                                                 ],
                                                 [
                                                     -4.178767060506475,
                                                     53.146422795692239
                                                 ],
                                                 [
                                                     -4.178852031908938,
                                                     53.146299000954215
                                                 ],
                                                 [
                                                     -4.179289720990642,
                                                     53.146320649364007
                                                 ],
                                                 [
                                                     -4.179859812572375,
                                                     53.146327287024334
                                                 ],
                                                 [
                                                     -4.181246663638222,
                                                     53.146339630318863
                                                 ],
                                                 [
                                                     -4.181340188229505,
                                                     53.146236350368497
                                                 ],
                                                 [
                                                     -4.181496862056088,
                                                     53.146140810221226
                                                 ],
                                                 [
                                                     -4.181903981513506,
                                                     53.146002120390968
                                                 ],
                                                 [
                                                     -4.182295623557803,
                                                     53.145791717537563
                                                 ],
                                                 [
                                                     -4.182437576346156,
                                                     53.145700131337939
                                                 ],
                                                 [
                                                     -4.183524706398254,
                                                     53.144787394734394
                                                 ],
                                                 [
                                                     -4.183888124364792,
                                                     53.144463353769801
                                                 ],
                                                 [
                                                     -4.184672792335195,
                                                     53.143691967345596
                                                 ],
                                                 [
                                                     -4.184988426762962,
                                                     53.143398461364256
                                                 ],
                                                 [
                                                     -4.185644239930806,
                                                     53.142739089581724
                                                 ],
                                                 [
                                                     -4.185898703816002,
                                                     53.142773066022187
                                                 ],
                                                 [
                                                     -4.187037045242929,
                                                     53.142870798349875
                                                 ],
                                                 [
                                                     -4.187397516432439,
                                                     53.142901924569621
                                                 ],
                                                 [
                                                     -4.187750930398804,
                                                     53.142942167506341
                                                 ],
                                                 [
                                                     -4.188745178698751,
                                                     53.143115426644968
                                                 ],
                                                 [
                                                     -4.188946612753881,
                                                     53.143136889202964
                                                 ],
                                                 [
                                                     -4.189062021612346,
                                                     53.14314195746875
                                                 ],
                                                 [
                                                     -4.189331165023078,
                                                     53.143171162124112
                                                 ],
                                                 [
                                                     -4.189976802075168,
                                                     53.14342991947246
                                                 ],
                                                 [
                                                     -4.191084153943723,
                                                     53.143886993184807
                                                 ],
                                                 [
                                                     -4.191451359213612,
                                                     53.144050110046777
                                                 ],
                                                 [
                                                     -4.192000828865988,
                                                     53.144327704287548
                                                 ],
                                                 [
                                                     -4.19250154602402,
                                                     53.144500133378457
                                                 ],
                                                 [
                                                     -4.192944519340675,
                                                     53.144623201267578
                                                 ],
                                                 [
                                                     -4.193274106877515,
                                                     53.14475195148885
                                                 ],
                                                 [
                                                     -4.194088354625248,
                                                     53.145235970035749
                                                 ],
                                                 [
                                                     -4.195303478750474,
                                                     53.145780900202539
                                                 ],
                                                 [
                                                     -4.195813680356491,
                                                     53.145993587502112
                                                 ],
                                                 [
                                                     -4.196843689462103,
                                                     53.146454642616838
                                                 ],
                                                 [
                                                     -4.197439733576629,
                                                     53.146706185510375
                                                 ],
                                                 [
                                                     -4.198092719425464,
                                                     53.146930608702284
                                                 ],
                                                 [
                                                     -4.19852798892595,
                                                     53.147049302961371
                                                 ],
                                                 [
                                                     -4.19874060584649,
                                                     53.147084025149319
                                                 ],
                                                 [
                                                     -4.199651794159208,
                                                     53.147151678666397
                                                 ],
                                                 [
                                                     -4.199802083068897,
                                                     53.147194830649653
                                                 ],
                                                 [
                                                     -4.199953199757043,
                                                     53.147285515874259
                                                 ],
                                                 [
                                                     -4.200141536796658,
                                                     53.147371017517443
                                                 ],
                                                 [
                                                     -4.200347177421548,
                                                     53.147413955728858
                                                 ],
                                                 [
                                                     -4.200559751537703,
                                                     53.147447775502812
                                                 ],
                                                 [
                                                     -4.200703401621558,
                                                     53.147508127120652
                                                 ],
                                                 [
                                                     -4.200794171341522,
                                                     53.147617004171408
                                                 ],
                                                 [
                                                     -4.200884684012341,
                                                     53.147602747039251
                                                 ],
                                                 [
                                                     -4.201135880016134,
                                                     53.147572036750994
                                                 ],
                                                 [
                                                     -4.201528615966895,
                                                     53.147531516327412
                                                 ],
                                                 [
                                                     -4.202012375790905,
                                                     53.147518074040349
                                                 ],
                                                 [
                                                     -4.20231565573807,
                                                     53.147512462903499
                                                 ],
                                                 [
                                                     -4.202754593874128,
                                                     53.14755557279841
                                                 ],
                                                 [
                                                     -4.203128771241736,
                                                     53.147590892589101
                                                 ],
                                                 [
                                                     -4.203098534828356,
                                                     53.147701108563354
                                                 ],
                                                 [
                                                     -4.203125103658116,
                                                     53.147752838062729
                                                 ],
                                                 [
                                                     -4.203430809938273,
                                                     53.147912563191859
                                                 ],
                                                 [
                                                     -4.204004665279097,
                                                     53.148225604750046
                                                 ],
                                                 [
                                                     -4.204257553703339,
                                                     53.148374710366326
                                                 ],
                                                 [
                                                     -4.204581378128952,
                                                     53.148534096165612
                                                 ],
                                                 [
                                                     -4.204809641321759,
                                                     53.14864051346013
                                                 ],
                                                 [
                                                     -4.205098055256269,
                                                     53.148871560470965
                                                 ],
                                                 [
                                                     -4.205099748989171,
                                                     53.148873327253732
                                                 ],
                                                 [
                                                     -4.205120964343418,
                                                     53.148996163069931
                                                 ],
                                                 [
                                                     -4.205181666876959,
                                                     53.149071437826599
                                                 ],
                                                 [
                                                     -4.205265535865871,
                                                     53.149192123854782
                                                 ],
                                                 [
                                                     -4.205340085267036,
                                                     53.149275321820546
                                                 ],
                                                 [
                                                     -4.205420855226351,
                                                     53.149333148417092
                                                 ],
                                                 [
                                                     -4.205486075749161,
                                                     53.149378678650166
                                                 ],
                                                 [
                                                     -4.205584759957969,
                                                     53.149408308903062
                                                 ],
                                                 [
                                                     -4.205582452924563,
                                                     53.149481156482963
                                                 ],
                                                 [
                                                     -4.205647586120152,
                                                     53.149496127607108
                                                 ],
                                                 [
                                                     -4.205882823728629,
                                                     53.149534013412939
                                                 ],
                                                 [
                                                     -4.206126191879352,
                                                     53.149614981244078
                                                 ],
                                                 [
                                                     -4.20643799827517,
                                                     53.149715262611032
                                                 ],
                                                 [
                                                     -4.206901459346483,
                                                     53.149916185952648
                                                 ],
                                                 [
                                                     -4.206979567828166,
                                                     53.149982149886114
                                                 ],
                                                 [
                                                     -4.20723712295996,
                                                     53.150132870124807
                                                 ],
                                                 [
                                                     -4.207378991025423,
                                                     53.150186955086895
                                                 ],
                                                 [
                                                     -4.207453916609166,
                                                     53.150219720751913
                                                 ],
                                                 [
                                                     -4.20772113936444,
                                                     53.150299253982325
                                                 ],
                                                 [
                                                     -4.207765425096696,
                                                     53.150316409692408
                                                 ],
                                                 [
                                                     -4.207756194102578,
                                                     53.150369611381329
                                                 ],
                                                 [
                                                     -4.207707325046645,
                                                     53.150436131797164
                                                 ],
                                                 [
                                                     -4.207719655136314,
                                                     53.150503404276364
                                                 ],
                                                 [
                                                     -4.207790190114282,
                                                     53.150565912737996
                                                 ],
                                                 [
                                                     -4.207878250835782,
                                                     53.150619107967017
                                                 ],
                                                 [
                                                     -4.208143902749135,
                                                     53.150725633734638
                                                 ],
                                                 [
                                                     -4.208235815815118,
                                                     53.150798620627043
                                                 ],
                                                 [
                                                     -4.208425016870775,
                                                     53.150871510709109
                                                 ],
                                                 [
                                                     -4.208518806920642,
                                                     53.15092100375027
                                                 ],
                                                 [
                                                     -4.20866551216798,
                                                     53.150951537743296
                                                 ],
                                                 [
                                                     -4.208842672162707,
                                                     53.151022852436917
                                                 ],
                                                 [
                                                     -4.208946485409262,
                                                     53.151152244760873
                                                 ],
                                                 [
                                                     -4.209327300236464,
                                                     53.151462551657353
                                                 ],
                                                 [
                                                     -4.209401259132622,
                                                     53.151505221253736
                                                 ],
                                                 [
                                                     -4.209444667080874,
                                                     53.151534076198757
                                                 ],
                                                 [
                                                     -4.209592908169791,
                                                     53.151654463461981
                                                 ],
                                                 [
                                                     -4.209845328667337,
                                                     53.151793678943001
                                                 ],
                                                 [
                                                     -4.21001146637733,
                                                     53.151883173683466
                                                 ],
                                                 [
                                                     -4.210342689830047,
                                                     53.152012835065371
                                                 ],
                                                 [
                                                     -4.210614901592055,
                                                     53.152100359196389
                                                 ],
                                                 [
                                                     -4.210859887839895,
                                                     53.152209960043272
                                                 ],
                                                 [
                                                     -4.210894075523811,
                                                     53.152205729620917
                                                 ],
                                                 [
                                                     -4.211017037901821,
                                                     53.152270856941307
                                                 ],
                                                 [
                                                     -4.211049301718865,
                                                     53.152346747843787
                                                 ],
                                                 [
                                                     -4.211058754631087,
                                                     53.152384322862275
                                                 ],
                                                 [
                                                     -4.209947485496368,
                                                     53.152675595784089
                                                 ],
                                                 [
                                                     -4.210139598816996,
                                                     53.152862579124879
                                                 ],
                                                 [
                                                     -4.210372795332974,
                                                     53.153006644979314
                                                 ],
                                                 [
                                                     -4.210621661242563,
                                                     53.153191674601267
                                                 ],
                                                 [
                                                     -4.21071011822113,
                                                     53.153283600018192
                                                 ],
                                                 [
                                                     -4.210772129891038,
                                                     53.153355252267126
                                                 ],
                                                 [
                                                     -4.210412887132471,
                                                     53.153494050956212
                                                 ],
                                                 [
                                                     -4.210199499732663,
                                                     53.153620343118313
                                                 ],
                                                 [
                                                     -4.210002765328117,
                                                     53.153895530817408
                                                 ],
                                                 [
                                                     -4.209902503273332,
                                                     53.153981881554103
                                                 ],
                                                 [
                                                     -4.209772118901657,
                                                     53.154065195980529
                                                 ],
                                                 [
                                                     -4.209534221864278,
                                                     53.15418016754294
                                                 ],
                                                 [
                                                     -4.209273032258491,
                                                     53.154249820326001
                                                 ],
                                                 [
                                                     -4.209017641945206,
                                                     53.154314781394483
                                                 ],
                                                 [
                                                     -4.208822103117845,
                                                     53.154322904513982
                                                 ],
                                                 [
                                                     -4.208670349482071,
                                                     53.15430954143757
                                                 ],
                                                 [
                                                     -4.20795613853036,
                                                     53.154176193703677
                                                 ],
                                                 [
                                                     -4.207624088485356,
                                                     53.154090672318823
                                                 ],
                                                 [
                                                     -4.207481703190452,
                                                     53.154055562359822
                                                 ],
                                                 [
                                                     -4.207344984742496,
                                                     53.154013156304821
                                                 ],
                                                 [
                                                     -4.206920503737309,
                                                     53.153931145124162
                                                 ],
                                                 [
                                                     -4.206597124383738,
                                                     53.153839078475208
                                                 ],
                                                 [
                                                     -4.206493948242865,
                                                     53.153808633178613
                                                 ],
                                                 [
                                                     -4.206228107042636,
                                                     53.153729970547111
                                                 ],
                                                 [
                                                     -4.205983340069131,
                                                     53.153711137144107
                                                 ],
                                                 [
                                                     -4.205742123433825,
                                                     53.153643701523663
                                                 ],
                                                 [
                                                     -4.2055275317265,
                                                     53.15357118859017
                                                 ],
                                                 [
                                                     -4.205331780272005,
                                                     53.153488528051184
                                                 ],
                                                 [
                                                     -4.205209099009074,
                                                     53.153428782380828
                                                 ],
                                                 [
                                                     -4.205164258619362,
                                                     53.153400850623477
                                                 ],
                                                 [
                                                     -4.20508297025989,
                                                     53.153333057241646
                                                 ],
                                                 [
                                                     -4.204961309001779,
                                                     53.153175320601754
                                                 ],
                                                 [
                                                     -4.204762552461576,
                                                     53.153120579090711
                                                 ],
                                                 [
                                                     -4.204630039325024,
                                                     53.15310236002415
                                                 ],
                                                 [
                                                     -4.204421587719964,
                                                     53.153091839830971
                                                 ],
                                                 [
                                                     -4.204079062261815,
                                                     53.153092790033178
                                                 ],
                                                 [
                                                     -4.203896522786584,
                                                     53.153118639691328
                                                 ],
                                                 [
                                                     -4.203687284745602,
                                                     53.153181835719771
                                                 ],
                                                 [
                                                     -4.203476501088496,
                                                     53.153270227919172
                                                 ],
                                                 [
                                                     -4.203211232384095,
                                                     53.153375895268638
                                                 ],
                                                 [
                                                     -4.203041713901072,
                                                     53.15342487326204
                                                 ],
                                                 [
                                                     -4.202681590133715,
                                                     53.153460300248952
                                                 ],
                                                 [
                                                     -4.202615517977978,
                                                     53.153484891748015
                                                 ],
                                                 [
                                                     -4.202328317841245,
                                                     53.153629523529247
                                                 ],
                                                 [
                                                     -4.201994159130955,
                                                     53.153793988465722
                                                 ],
                                                 [
                                                     -4.201739488582643,
                                                     53.153902063745441
                                                 ],
                                                 [
                                                     -4.201404130533498,
                                                     53.154043179404709
                                                 ],
                                                 [
                                                     -4.201218818577733,
                                                     53.154104130371415
                                                 ],
                                                 [
                                                     -4.200849301907895,
                                                     53.154218821917404
                                                 ],
                                                 [
                                                     -4.200212310917393,
                                                     53.154398766746837
                                                 ],
                                                 [
                                                     -4.199947122540068,
                                                     53.154477371915839
                                                 ],
                                                 [
                                                     -4.199901441424677,
                                                     53.154490799670626
                                                 ],
                                                 [
                                                     -4.199838950983389,
                                                     53.154525210573034
                                                 ],
                                                 [
                                                     -4.199664387639233,
                                                     53.154622812774967
                                                 ],
                                                 [
                                                     -4.199299890280771,
                                                     53.15477794343569
                                                 ],
                                                 [
                                                     -4.199065050678164,
                                                     53.154864074883214
                                                 ],
                                                 [
                                                     -4.198995695733126,
                                                     53.154882434126691
                                                 ],
                                                 [
                                                     -4.198738776937453,
                                                     53.154949198463768
                                                 ],
                                                 [
                                                     -4.19848889949987,
                                                     53.155004147767649
                                                 ],
                                                 [
                                                     -4.198098345610518,
                                                     53.155088748506614
                                                 ],
                                                 [
                                                     -4.197618825570145,
                                                     53.15518928220969
                                                 ],
                                                 [
                                                     -4.197431106278586,
                                                     53.155232295457196
                                                 ],
                                                 [
                                                     -4.19725543356432,
                                                     53.155308342943577
                                                 ],
                                                 [
                                                     -4.196803710333398,
                                                     53.155453391451594
                                                 ],
                                                 [
                                                     -4.196696001652861,
                                                     53.155481444330938
                                                 ],
                                                 [
                                                     -4.196585304835676,
                                                     53.155511351307091
                                                 ],
                                                 [
                                                     -4.196487335818154,
                                                     53.155524843514705
                                                 ],
                                                 [
                                                     -4.196459058480712,
                                                     53.155528960704899
                                                 ],
                                                 [
                                                     -4.196127374852093,
                                                     53.155595301614049
                                                 ],
                                                 [
                                                     -4.195878738825473,
                                                     53.155645727980279
                                                 ],
                                                 [
                                                     -4.195710922300118,
                                                     53.155670395167562
                                                 ],
                                                 [
                                                     -4.195549656410066,
                                                     53.155676066054014
                                                 ],
                                                 [
                                                     -4.195335739384082,
                                                     53.155674618750545
                                                 ],
                                                 [
                                                     -4.195009094531336,
                                                     53.15569232687691
                                                 ],
                                                 [
                                                     -4.194698895076657,
                                                     53.155681867581293
                                                 ],
                                                 [
                                                     -4.194428602841215,
                                                     53.155660785540654
                                                 ],
                                                 [
                                                     -4.194072682779838,
                                                     53.155602630756917
                                                 ],
                                                 [
                                                     -4.193766884560289,
                                                     53.15553096862152
                                                 ],
                                                 [
                                                     -4.193133563756827,
                                                     53.155372671639931
                                                 ],
                                                 [
                                                     -4.192718193637359,
                                                     53.155263476926983
                                                 ],
                                                 [
                                                     -4.192390461872805,
                                                     53.155143678622608
                                                 ],
                                                 [
                                                     -4.192206524112374,
                                                     53.155055296496847
                                                 ],
                                                 [
                                                     -4.191925545731099,
                                                     53.154882504693944
                                                 ],
                                                 [
                                                     -4.191652384229231,
                                                     53.154688805027376
                                                 ],
                                                 [
                                                     -4.191397853981432,
                                                     53.154507346139752
                                                 ],
                                                 [
                                                     -4.191231513758946,
                                                     53.154413335812947
                                                 ],
                                                 [
                                                     -4.190728946987411,
                                                     53.154206778831401
                                                 ],
                                                 [
                                                     -4.190489610207754,
                                                     53.154117706307851
                                                 ],
                                                 [
                                                     -4.190252345232989,
                                                     53.154071738305753
                                                 ],
                                                 [
                                                     -4.190010861246394,
                                                     53.154027645610377
                                                 ],
                                                 [
                                                     -4.189726238064165,
                                                     53.153988839599286
                                                 ],
                                                 [
                                                     -4.189415229034124,
                                                     53.153962202636677
                                                 ],
                                                 [
                                                     -4.189002011787708,
                                                     53.153955420622943
                                                 ],
                                                 [
                                                     -4.188684427707532,
                                                     53.153944992548695
                                                 ],
                                                 [
                                                     -4.188423160243556,
                                                     53.153894967765822
                                                 ],
                                                 [
                                                     -4.188073329908995,
                                                     53.153810618109162
                                                 ],
                                                 [
                                                     -4.187750911652029,
                                                     53.153705090254832
                                                 ],
                                                 [
                                                     -4.187618449102559,
                                                     53.153687751333095
                                                 ],
                                                 [
                                                     -4.187487420248939,
                                                     53.153669485941933
                                                 ],
                                                 [
                                                     -4.187276224843959,
                                                     53.153604966918181
                                                 ],
                                                 [
                                                     -4.187148946462626,
                                                     53.153573150586247
                                                 ],
                                                 [
                                                     -4.186905391520816,
                                                     53.153548863078392
                                                 ],
                                                 [
                                                     -4.186559768018073,
                                                     53.153547123399377
                                                 ],
                                                 [
                                                     -4.186019137006923,
                                                     53.153561546689097
                                                 ],
                                                 [
                                                     -4.185563747111797,
                                                     53.153547438255053
                                                 ],
                                                 [
                                                     -4.185107290231315,
                                                     53.153541437556306
                                                 ],
                                                 [
                                                     -4.184926173918738,
                                                     53.15351060714864
                                                 ],
                                                 [
                                                     -4.184862232797193,
                                                     53.153487512929303
                                                 ],
                                                 [
                                                     -4.184620654122744,
                                                     53.153383099261823
                                                 ],
                                                 [
                                                     -4.184537766297865,
                                                     53.153341477387691
                                                 ],
                                                 [
                                                     -4.184493161523827,
                                                     53.15325960433043
                                                 ],
                                                 [
                                                     -4.184448093439147,
                                                     53.153078780226664
                                                 ],
                                                 [
                                                     -4.184403062951406,
                                                     53.152986129628879
                                                 ],
                                                 [
                                                     -4.184311970644116,
                                                     53.152872752736698
                                                 ],
                                                 [
                                                     -4.184167327766099,
                                                     53.152792715256012
                                                 ],
                                                 [
                                                     -4.183737015248243,
                                                     53.152594690428757
                                                 ],
                                                 [
                                                     -4.183162750948076,
                                                     53.152330096161613
                                                 ],
                                                 [
                                                     -4.182587625411019,
                                                     53.152138318550797
                                                 ],
                                                 [
                                                     -4.181511887159481,
                                                     53.151745391339503
                                                 ],
                                                 [
                                                     -4.181284806575372,
                                                     53.151661468568776
                                                 ],
                                                 [
                                                     -4.180921943819383,
                                                     53.151584527746557
                                                 ],
                                                 [
                                                     -4.180645002871946,
                                                     53.151492438438389
                                                 ],
                                                 [
                                                     -4.180417515650298,
                                                     53.151400432497532
                                                 ],
                                                 [
                                                     -4.18019295768099,
                                                     53.151278621157154
                                                 ],
                                                 [
                                                     -4.180020559662359,
                                                     53.151181110960891
                                                 ],
                                                 [
                                                     -4.1798880779706,
                                                     53.151282407705899
                                                 ],
                                                 [
                                                     -4.179620501959407,
                                                     53.151462666983115
                                                 ],
                                                 [
                                                     -4.179421836899427,
                                                     53.15164256300659
                                                 ],
                                                 [
                                                     -4.179304487502816,
                                                     53.151748075586966
                                                 ],
                                                 [
                                                     -4.179184702849001,
                                                     53.151893180267308
                                                 ],
                                                 [
                                                     -4.179109083976557,
                                                     53.152024084561297
                                                 ],
                                                 [
                                                     -4.179088045707043,
                                                     53.152287913223972
                                                 ],
                                                 [
                                                     -4.179052125502806,
                                                     53.152374857769189
                                                 ],
                                                 [
                                                     -4.178931497336634,
                                                     53.152532561062515
                                                 ],
                                                 [
                                                     -4.178811988293381,
                                                     53.152683143739537
                                                 ],
                                                 [
                                                     -4.178421706739195,
                                                     53.152685792402522
                                                 ],
                                                 [
                                                     -4.178161094907868,
                                                     53.152648317592444
                                                 ],
                                                 [
                                                     -4.178008719054235,
                                                     53.152622343457857
                                                 ],
                                                 [
                                                     -4.17650085832871,
                                                     53.152084387660935
                                                 ],
                                                 [
                                                     -4.176113690980911,
                                                     53.151941274040581
                                                 ],
                                                 [
                                                     -4.175895642138276,
                                                     53.151947956454116
                                                 ],
                                                 [
                                                     -4.175894028097343,
                                                     53.15194528963238
                                                 ],
                                                 [
                                                     -4.175855220369825,
                                                     53.151945999022701
                                                 ],
                                                 [
                                                     -4.175815714819562,
                                                     53.151845154447308
                                                 ],
                                                 [
                                                     -4.175806176137121,
                                                     53.15183454350165
                                                 ],
                                                 [
                                                     -4.175744784798386,
                                                     53.151683765135367
                                                 ],
                                                 [
                                                     -4.175729548812767,
                                                     53.151650697831911
                                                 ],
                                                 [
                                                     -4.175647239733406,
                                                     53.151471539447911
                                                 ],
                                                 [
                                                     -4.17544773291321,
                                                     53.151193766344335
                                                 ],
                                                 [
                                                     -4.175303615366848,
                                                     53.151065172977326
                                                 ],
                                                 [
                                                     -4.175002418915004,
                                                     53.150905203996082
                                                 ],
                                                 [
                                                     -4.174767313573033,
                                                     53.150840290725938
                                                 ],
                                                 [
                                                     -4.174556020476246,
                                                     53.150773144727864
                                                 ],
                                                 [
                                                     -4.174908003490176,
                                                     53.149954811355499
                                                 ],
                                                 [
                                                     -4.175119832302572,
                                                     53.149530204034662
                                                 ]
                                             ]
                                         ]
                                     ]
                 }
}