{
    "type":  "Feature",
    "properties":  {
                       "Name":  "Menai ED",
                       "Area_Code":  "UTE",
                       "Area_Description":  "Unitary Authority Electoral Division",
                       "File_Name":  "GWYNEDD_-_GWYNEDD",
                       "Feature_Serial_Number":  287,
                       "Collection_Serial_Number":  287,
                       "Global_Polygon_ID":  142548,
                       "Admin_Unit_ID":  182793,
                       "Census_Code":  "W05001551",
                       "Hectares":  246.722,
                       "Non_Inland_Area":  8.379,
                       "Area_Type_Code":  "VA",
                       "Area_Type_Description":  "CIVIL VOTING AREA",
                       "Non_Area_Type_Code":  null,
                       "Non_Area_Type_Description":  null
                   },
    "geometry":  {
                     "type":  "MultiPolygon",
                     "coordinates":  [
                                         [
                                             [
                                                 [
                                                     -4.260868862376692,
                                                     53.158037172322906
                                                 ],
                                                 [
                                                     -4.260096144373005,
                                                     53.158080609767957
                                                 ],
                                                 [
                                                     -4.259927838857814,
                                                     53.158095489753194
                                                 ],
                                                 [
                                                     -4.259738599977773,
                                                     53.158052343218536
                                                 ],
                                                 [
                                                     -4.258565066285311,
                                                     53.157838133499965
                                                 ],
                                                 [
                                                     -4.25819022737108,
                                                     53.157736485899555
                                                 ],
                                                 [
                                                     -4.257983172955254,
                                                     53.157609993723902
                                                 ],
                                                 [
                                                     -4.257818782663199,
                                                     53.15758434918402
                                                 ],
                                                 [
                                                     -4.25764866807223,
                                                     53.157562408440334
                                                 ],
                                                 [
                                                     -4.257391059850113,
                                                     53.157527744897514
                                                 ],
                                                 [
                                                     -4.256889776936065,
                                                     53.157495904683493
                                                 ],
                                                 [
                                                     -4.256531606437454,
                                                     53.157483819512812
                                                 ],
                                                 [
                                                     -4.256321881214887,
                                                     53.15747790776377
                                                 ],
                                                 [
                                                     -4.255978112369829,
                                                     53.157481727033542
                                                 ],
                                                 [
                                                     -4.255454548249769,
                                                     53.157452998524377
                                                 ],
                                                 [
                                                     -4.255426982056608,
                                                     53.157470598112106
                                                 ],
                                                 [
                                                     -4.254615087893,
                                                     53.157990312925499
                                                 ],
                                                 [
                                                     -4.253186427313707,
                                                     53.158842759395519
                                                 ],
                                                 [
                                                     -4.252647922028013,
                                                     53.159157744449502
                                                 ],
                                                 [
                                                     -4.251429937334942,
                                                     53.159865875109638
                                                 ],
                                                 [
                                                     -4.250388377615153,
                                                     53.160486167939027
                                                 ],
                                                 [
                                                     -4.249766896120416,
                                                     53.160844952605416
                                                 ],
                                                 [
                                                     -4.249560046227879,
                                                     53.160979192392169
                                                 ],
                                                 [
                                                     -4.247966544291211,
                                                     53.161975895058411
                                                 ],
                                                 [
                                                     -4.247939400686864,
                                                     53.161971014913149
                                                 ],
                                                 [
                                                     -4.247654508604656,
                                                     53.161900802814479
                                                 ],
                                                 [
                                                     -4.247033680635687,
                                                     53.161730060910259
                                                 ],
                                                 [
                                                     -4.246259196637616,
                                                     53.161422806682502
                                                 ],
                                                 [
                                                     -4.246109567856637,
                                                     53.161394171012752
                                                 ],
                                                 [
                                                     -4.245715260537197,
                                                     53.161262202552741
                                                 ],
                                                 [
                                                     -4.245352358942067,
                                                     53.161100966791913
                                                 ],
                                                 [
                                                     -4.245127168070953,
                                                     53.160999961778316
                                                 ],
                                                 [
                                                     -4.2446503138744,
                                                     53.160749103354505
                                                 ],
                                                 [
                                                     -4.244464281511511,
                                                     53.160623179613779
                                                 ],
                                                 [
                                                     -4.244234972659417,
                                                     53.160443152635068
                                                 ],
                                                 [
                                                     -4.243050573681712,
                                                     53.1594764954664
                                                 ],
                                                 [
                                                     -4.242808330353967,
                                                     53.159218512472826
                                                 ],
                                                 [
                                                     -4.24221269581466,
                                                     53.158668775075618
                                                 ],
                                                 [
                                                     -4.242118954969019,
                                                     53.158706493379448
                                                 ],
                                                 [
                                                     -4.241820811048804,
                                                     53.158582587300785
                                                 ],
                                                 [
                                                     -4.241401256983705,
                                                     53.158426901176647
                                                 ],
                                                 [
                                                     -4.240898724376131,
                                                     53.158141457109778
                                                 ],
                                                 [
                                                     -4.240537754845886,
                                                     53.158934906438709
                                                 ],
                                                 [
                                                     -4.240367269741382,
                                                     53.159279849323802
                                                 ],
                                                 [
                                                     -4.240163295844917,
                                                     53.159585694277752
                                                 ],
                                                 [
                                                     -4.239695615990542,
                                                     53.160170822258024
                                                 ],
                                                 [
                                                     -4.239324200474925,
                                                     53.160650773247127
                                                 ],
                                                 [
                                                     -4.23923152313453,
                                                     53.160623753987458
                                                 ],
                                                 [
                                                     -4.239219109515155,
                                                     53.160700388113746
                                                 ],
                                                 [
                                                     -4.239266486101489,
                                                     53.16074803311141
                                                 ],
                                                 [
                                                     -4.239157547742012,
                                                     53.160896680740649
                                                 ],
                                                 [
                                                     -4.23904709543568,
                                                     53.161047064997398
                                                 ],
                                                 [
                                                     -4.238998869861037,
                                                     53.161125271759182
                                                 ],
                                                 [
                                                     -4.238942199466774,
                                                     53.161185750043494
                                                 ],
                                                 [
                                                     -4.238919346187481,
                                                     53.161294038545307
                                                 ],
                                                 [
                                                     -4.238796575973025,
                                                     53.161549008257623
                                                 ],
                                                 [
                                                     -4.238658311418312,
                                                     53.161738564113755
                                                 ],
                                                 [
                                                     -4.238585208139181,
                                                     53.161857775544327
                                                 ],
                                                 [
                                                     -4.238462530689744,
                                                     53.161972435608966
                                                 ],
                                                 [
                                                     -4.238483370137236,
                                                     53.162142911129429
                                                 ],
                                                 [
                                                     -4.23837960462543,
                                                     53.162305752538835
                                                 ],
                                                 [
                                                     -4.238318196650182,
                                                     53.162417462188614
                                                 ],
                                                 [
                                                     -4.238220498295378,
                                                     53.162467027023325
                                                 ],
                                                 [
                                                     -4.238141031323326,
                                                     53.162464027496306
                                                 ],
                                                 [
                                                     -4.238049182882452,
                                                     53.162393758347775
                                                 ],
                                                 [
                                                     -4.238040136303414,
                                                     53.162307640614372
                                                 ],
                                                 [
                                                     -4.237954831832709,
                                                     53.162277785377739
                                                 ],
                                                 [
                                                     -4.237823585955818,
                                                     53.162284747198505
                                                 ],
                                                 [
                                                     -4.237763963645458,
                                                     53.162288564347328
                                                 ],
                                                 [
                                                     -4.237695795856588,
                                                     53.162272767641795
                                                 ],
                                                 [
                                                     -4.237641042063307,
                                                     53.162227957052558
                                                 ],
                                                 [
                                                     -4.237589633186412,
                                                     53.162159713670583
                                                 ],
                                                 [
                                                     -4.237412018993006,
                                                     53.162109931484409
                                                 ],
                                                 [
                                                     -4.237318682068916,
                                                     53.162011017067599
                                                 ],
                                                 [
                                                     -4.237153415630631,
                                                     53.161997044918643
                                                 ],
                                                 [
                                                     -4.237084936893148,
                                                     53.16200372452132
                                                 ],
                                                 [
                                                     -4.237010748893637,
                                                     53.162016804061089
                                                 ],
                                                 [
                                                     -4.236932684207269,
                                                     53.162040741814138
                                                 ],
                                                 [
                                                     -4.236840113924599,
                                                     53.162044278541025
                                                 ],
                                                 [
                                                     -4.236631580038556,
                                                     53.162002356968728
                                                 ],
                                                 [
                                                     -4.236389058185805,
                                                     53.161970959881813
                                                 ],
                                                 [
                                                     -4.236190875981537,
                                                     53.161928843070804
                                                 ],
                                                 [
                                                     -4.236153897711728,
                                                     53.161907965974336
                                                 ],
                                                 [
                                                     -4.235986094611959,
                                                     53.161902128918477
                                                 ],
                                                 [
                                                     -4.235868852273163,
                                                     53.161862895856622
                                                 ],
                                                 [
                                                     -4.235752050938493,
                                                     53.161860595059068
                                                 ],
                                                 [
                                                     -4.235638833272896,
                                                     53.161898764739448
                                                 ],
                                                 [
                                                     -4.235417912227289,
                                                     53.161964932281563
                                                 ],
                                                 [
                                                     -4.235097963684451,
                                                     53.162026666964522
                                                 ],
                                                 [
                                                     -4.234841541405596,
                                                     53.162071928259635
                                                 ],
                                                 [
                                                     -4.234814057097991,
                                                     53.162091319596051
                                                 ],
                                                 [
                                                     -4.234661257465326,
                                                     53.162086997170356
                                                 ],
                                                 [
                                                     -4.234388916617406,
                                                     53.162056156671284
                                                 ],
                                                 [
                                                     -4.234321235062763,
                                                     53.161992710971639
                                                 ],
                                                 [
                                                     -4.233844600675075,
                                                     53.161742704664576
                                                 ],
                                                 [
                                                     -4.233476054696211,
                                                     53.161559877323498
                                                 ],
                                                 [
                                                     -4.233202930488735,
                                                     53.161428380255416
                                                 ],
                                                 [
                                                     -4.232512039040284,
                                                     53.16120395874588
                                                 ],
                                                 [
                                                     -4.232303965731265,
                                                     53.161142246573966
                                                 ],
                                                 [
                                                     -4.231538215789119,
                                                     53.161001017330435
                                                 ],
                                                 [
                                                     -4.230851304053357,
                                                     53.16085300209113
                                                 ],
                                                 [
                                                     -4.230780434614064,
                                                     53.160811186768562
                                                 ],
                                                 [
                                                     -4.230635753684867,
                                                     53.16059000015305
                                                 ],
                                                 [
                                                     -4.230450858283187,
                                                     53.160254517483807
                                                 ],
                                                 [
                                                     -4.230300441480338,
                                                     53.160008270807509
                                                 ],
                                                 [
                                                     -4.230210443269472,
                                                     53.15988771670014
                                                 ],
                                                 [
                                                     -4.230185964750202,
                                                     53.159734386217572
                                                 ],
                                                 [
                                                     -4.230153748510582,
                                                     53.159631624875445
                                                 ],
                                                 [
                                                     -4.230150791040686,
                                                     53.159631680282239
                                                 ],
                                                 [
                                                     -4.23007462774554,
                                                     53.159375953148881
                                                 ],
                                                 [
                                                     -4.23008024308404,
                                                     53.159165522704164
                                                 ],
                                                 [
                                                     -4.230139112108242,
                                                     53.15914725184156
                                                 ],
                                                 [
                                                     -4.230120946499007,
                                                     53.158796960458588
                                                 ],
                                                 [
                                                     -4.230072286055242,
                                                     53.158550695180395
                                                 ],
                                                 [
                                                     -4.229869207894484,
                                                     53.157490828081542
                                                 ],
                                                 [
                                                     -4.229865971232891,
                                                     53.157485496009791
                                                 ],
                                                 [
                                                     -4.229859735846997,
                                                     53.157453254800153
                                                 ],
                                                 [
                                                     -4.229608043750839,
                                                     53.157099248541002
                                                 ],
                                                 [
                                                     -4.229346448360837,
                                                     53.156696889317146
                                                 ],
                                                 [
                                                     -4.229715727073044,
                                                     53.15660719145751
                                                 ],
                                                 [
                                                     -4.230051750981326,
                                                     53.156539776169886
                                                 ],
                                                 [
                                                     -4.230076899164945,
                                                     53.156534810515282
                                                 ],
                                                 [
                                                     -4.230647800561789,
                                                     53.156497149181291
                                                 ],
                                                 [
                                                     -4.231125968447742,
                                                     53.156488187692169
                                                 ],
                                                 [
                                                     -4.231286450713686,
                                                     53.156495965923142
                                                 ],
                                                 [
                                                     -4.231655406418912,
                                                     53.156514216557206
                                                 ],
                                                 [
                                                     -4.231685329582121,
                                                     53.156509552142197
                                                 ],
                                                 [
                                                     -4.231703474249758,
                                                     53.156509916846105
                                                 ],
                                                 [
                                                     -4.232348440123702,
                                                     53.156492428665352
                                                 ],
                                                 [
                                                     -4.232786704428564,
                                                     53.156478095055597
                                                 ],
                                                 [
                                                     -4.233138924116127,
                                                     53.156463036459378
                                                 ],
                                                 [
                                                     -4.233447860611473,
                                                     53.156435392587312
                                                 ],
                                                 [
                                                     -4.233747079001448,
                                                     53.156407840365517
                                                 ],
                                                 [
                                                     -4.234118771095109,
                                                     53.15634273454716
                                                 ],
                                                 [
                                                     -4.234129078797126,
                                                     53.156335687366557
                                                 ],
                                                 [
                                                     -4.234464206945082,
                                                     53.156251199143149
                                                 ],
                                                 [
                                                     -4.234706819373735,
                                                     53.156171053288297
                                                 ],
                                                 [
                                                     -4.234980853183002,
                                                     53.156090406881276
                                                 ],
                                                 [
                                                     -4.235425106417225,
                                                     53.156031730486738
                                                 ],
                                                 [
                                                     -4.235821151799687,
                                                     53.155968564306605
                                                 ],
                                                 [
                                                     -4.236139436528656,
                                                     53.155904162146498
                                                 ],
                                                 [
                                                     -4.237408485439086,
                                                     53.155572826685137
                                                 ],
                                                 [
                                                     -4.23758259044963,
                                                     53.155527218807187
                                                 ],
                                                 [
                                                     -4.237750816493801,
                                                     53.155453948453015
                                                 ],
                                                 [
                                                     -4.238046451159585,
                                                     53.155328846225778
                                                 ],
                                                 [
                                                     -4.238397659840017,
                                                     53.155179238376583
                                                 ],
                                                 [
                                                     -4.238612253396829,
                                                     53.155105993026879
                                                 ],
                                                 [
                                                     -4.238822662672463,
                                                     53.15504001686709
                                                 ],
                                                 [
                                                     -4.239093273344308,
                                                     53.154979199719548
                                                 ],
                                                 [
                                                     -4.239571364703523,
                                                     53.154883827735205
                                                 ],
                                                 [
                                                     -4.239658594440937,
                                                     53.154863311106546
                                                 ],
                                                 [
                                                     -4.240592382578355,
                                                     53.154671365594773
                                                 ],
                                                 [
                                                     -4.241453922187474,
                                                     53.154442033370302
                                                 ],
                                                 [
                                                     -4.242260519855948,
                                                     53.154253258115567
                                                 ],
                                                 [
                                                     -4.242644812690603,
                                                     53.154173989943324
                                                 ],
                                                 [
                                                     -4.242768703990434,
                                                     53.154148434992806
                                                 ],
                                                 [
                                                     -4.243280095352474,
                                                     53.154019692880368
                                                 ],
                                                 [
                                                     -4.243608872184097,
                                                     53.153942550300812
                                                 ],
                                                 [
                                                     -4.243992150291154,
                                                     53.153852617508235
                                                 ],
                                                 [
                                                     -4.244262450768425,
                                                     53.153790747782359
                                                 ],
                                                 [
                                                     -4.24464750705032,
                                                     53.153702610767056
                                                 ],
                                                 [
                                                     -4.245443837106038,
                                                     53.153501784219621
                                                 ],
                                                 [
                                                     -4.245701928307933,
                                                     53.153424408385199
                                                 ],
                                                 [
                                                     -4.246212564103414,
                                                     53.153255461502383
                                                 ],
                                                 [
                                                     -4.246884387906207,
                                                     53.153044810896176
                                                 ],
                                                 [
                                                     -4.247216975919886,
                                                     53.15293919221056
                                                 ],
                                                 [
                                                     -4.247464650121638,
                                                     53.152844310627763
                                                 ],
                                                 [
                                                     -4.247945801514613,
                                                     53.152650022767034
                                                 ],
                                                 [
                                                     -4.248179985646881,
                                                     53.152552094779942
                                                 ],
                                                 [
                                                     -4.248269063842961,
                                                     53.152510852443889
                                                 ],
                                                 [
                                                     -4.248416969220984,
                                                     53.152450517092454
                                                 ],
                                                 [
                                                     -4.248501611458632,
                                                     53.152410257458357
                                                 ],
                                                 [
                                                     -4.248628081492015,
                                                     53.152340436793608
                                                 ],
                                                 [
                                                     -4.248972596838655,
                                                     53.152149579068116
                                                 ],
                                                 [
                                                     -4.249202194765107,
                                                     53.152022101748855
                                                 ],
                                                 [
                                                     -4.249626588009603,
                                                     53.151756933538451
                                                 ],
                                                 [
                                                     -4.249671543845536,
                                                     53.151730010332756
                                                 ],
                                                 [
                                                     -4.249770049556776,
                                                     53.151670624888752
                                                 ],
                                                 [
                                                     -4.250096445943349,
                                                     53.151505271735836
                                                 ],
                                                 [
                                                     -4.250427282042104,
                                                     53.151339923631703
                                                 ],
                                                 [
                                                     -4.250632190640834,
                                                     53.151249309827797
                                                 ],
                                                 [
                                                     -4.250671458183939,
                                                     53.15123194500044
                                                 ],
                                                 [
                                                     -4.250949457803319,
                                                     53.151115143624502
                                                 ],
                                                 [
                                                     -4.251864931102791,
                                                     53.15074539579183
                                                 ],
                                                 [
                                                     -4.25206926542661,
                                                     53.150648950743495
                                                 ],
                                                 [
                                                     -4.252246034158704,
                                                     53.15057010421787
                                                 ],
                                                 [
                                                     -4.252408664913731,
                                                     53.150477952327066
                                                 ],
                                                 [
                                                     -4.252637527230672,
                                                     53.150334302116441
                                                 ],
                                                 [
                                                     -4.253041666504172,
                                                     53.150055116548316
                                                 ],
                                                 [
                                                     -4.253412250242837,
                                                     53.149763980289485
                                                 ],
                                                 [
                                                     -4.254018387385198,
                                                     53.14928771856205
                                                 ],
                                                 [
                                                     -4.254349739255631,
                                                     53.149045859487138
                                                 ],
                                                 [
                                                     -4.254961183101728,
                                                     53.148727686026071
                                                 ],
                                                 [
                                                     -4.255178503907446,
                                                     53.148622898537894
                                                 ],
                                                 [
                                                     -4.255556217020056,
                                                     53.148468244013742
                                                 ],
                                                 [
                                                     -4.255716143810613,
                                                     53.148409485904786
                                                 ],
                                                 [
                                                     -4.255830838825966,
                                                     53.14837225760288
                                                 ],
                                                 [
                                                     -4.256221136452162,
                                                     53.148257808840562
                                                 ],
                                                 [
                                                     -4.256686367123159,
                                                     53.148116860682677
                                                 ],
                                                 [
                                                     -4.256978609271033,
                                                     53.148016042949038
                                                 ],
                                                 [
                                                     -4.257218948189215,
                                                     53.147922411627256
                                                 ],
                                                 [
                                                     -4.25745010799951,
                                                     53.147794887404501
                                                 ],
                                                 [
                                                     -4.257906731870573,
                                                     53.147548843909981
                                                 ],
                                                 [
                                                     -4.25828103663026,
                                                     53.147329618642907
                                                 ],
                                                 [
                                                     -4.258550437184692,
                                                     53.147162626674223
                                                 ],
                                                 [
                                                     -4.258869662412811,
                                                     53.14703342937041
                                                 ],
                                                 [
                                                     -4.259158914922515,
                                                     53.146960436685795
                                                 ],
                                                 [
                                                     -4.259408944471614,
                                                     53.146964678839836
                                                 ],
                                                 [
                                                     -4.259578928238634,
                                                     53.146984911870817
                                                 ],
                                                 [
                                                     -4.259960775426598,
                                                     53.146965662853432
                                                 ],
                                                 [
                                                     -4.260000901329223,
                                                     53.146967799616768
                                                 ],
                                                 [
                                                     -4.260291497499757,
                                                     53.146983275181789
                                                 ],
                                                 [
                                                     -4.260537284389001,
                                                     53.146931982317049
                                                 ],
                                                 [
                                                     -4.26107261295576,
                                                     53.146865673795084
                                                 ],
                                                 [
                                                     -4.261256833584556,
                                                     53.146842399420485
                                                 ],
                                                 [
                                                     -4.261480998708249,
                                                     53.146781513888889
                                                 ],
                                                 [
                                                     -4.261632154897088,
                                                     53.146727407992259
                                                 ],
                                                 [
                                                     -4.26177394253295,
                                                     53.146666289904779
                                                 ],
                                                 [
                                                     -4.261942040216415,
                                                     53.146591998063045
                                                 ],
                                                 [
                                                     -4.262158151217642,
                                                     53.146464750484803
                                                 ],
                                                 [
                                                     -4.262473922088368,
                                                     53.146242039766243
                                                 ],
                                                 [
                                                     -4.262700325316681,
                                                     53.146083136344018
                                                 ],
                                                 [
                                                     -4.263683499048431,
                                                     53.145527658020562
                                                 ],
                                                 [
                                                     -4.264254242212603,
                                                     53.145148189542617
                                                 ],
                                                 [
                                                     -4.264663286176268,
                                                     53.144877858162914
                                                 ],
                                                 [
                                                     -4.264928695277894,
                                                     53.144638122499025
                                                 ],
                                                 [
                                                     -4.265171953544627,
                                                     53.144401593170883
                                                 ],
                                                 [
                                                     -4.265343496731894,
                                                     53.144222067688816
                                                 ],
                                                 [
                                                     -4.265442629581649,
                                                     53.144116814076192
                                                 ],
                                                 [
                                                     -4.265600952317976,
                                                     53.143943831679969
                                                 ],
                                                 [
                                                     -4.265730322961439,
                                                     53.143787667477632
                                                 ],
                                                 [
                                                     -4.265793359605264,
                                                     53.143706381774912
                                                 ],
                                                 [
                                                     -4.265808558893316,
                                                     53.143683621427435
                                                 ],
                                                 [
                                                     -4.266021777205637,
                                                     53.143415304721238
                                                 ],
                                                 [
                                                     -4.266263442134322,
                                                     53.143064472162521
                                                 ],
                                                 [
                                                     -4.266645802736164,
                                                     53.14254566432173
                                                 ],
                                                 [
                                                     -4.266901803048515,
                                                     53.1422377919532
                                                 ],
                                                 [
                                                     -4.26709568536371,
                                                     53.141972447908728
                                                 ],
                                                 [
                                                     -4.267147885478431,
                                                     53.141856403058455
                                                 ],
                                                 [
                                                     -4.267223014911903,
                                                     53.141637363764467
                                                 ],
                                                 [
                                                     -4.267242898380057,
                                                     53.141532719988703
                                                 ],
                                                 [
                                                     -4.267246097440707,
                                                     53.141338421909872
                                                 ],
                                                 [
                                                     -4.267469828620131,
                                                     53.14132606868877
                                                 ],
                                                 [
                                                     -4.267843579894858,
                                                     53.141212884231443
                                                 ],
                                                 [
                                                     -4.268183958508451,
                                                     53.141060697221818
                                                 ],
                                                 [
                                                     -4.268602996720492,
                                                     53.140848731606617
                                                 ],
                                                 [
                                                     -4.268920899409914,
                                                     53.140687921493004
                                                 ],
                                                 [
                                                     -4.269442185145497,
                                                     53.140404609774251
                                                 ],
                                                 [
                                                     -4.269843053690583,
                                                     53.140204277840638
                                                 ],
                                                 [
                                                     -4.270055532388441,
                                                     53.140107449669287
                                                 ],
                                                 [
                                                     -4.270274656572529,
                                                     53.140054867263743
                                                 ],
                                                 [
                                                     -4.27045533408429,
                                                     53.1400282743272
                                                 ],
                                                 [
                                                     -4.270885826791571,
                                                     53.139981208429575
                                                 ],
                                                 [
                                                     -4.270898284903186,
                                                     53.140019006838578
                                                 ],
                                                 [
                                                     -4.27101998030918,
                                                     53.140328489196307
                                                 ],
                                                 [
                                                     -4.271134145172722,
                                                     53.140590188994523
                                                 ],
                                                 [
                                                     -4.271309487835516,
                                                     53.140927558533797
                                                 ],
                                                 [
                                                     -4.271311664650185,
                                                     53.140931746323233
                                                 ],
                                                 [
                                                     -4.271480863134562,
                                                     53.141237757434226
                                                 ],
                                                 [
                                                     -4.271676966361604,
                                                     53.141655071345419
                                                 ],
                                                 [
                                                     -4.271754880917443,
                                                     53.141931910890968
                                                 ],
                                                 [
                                                     -4.271796912627177,
                                                     53.142278420907431
                                                 ],
                                                 [
                                                     -4.271813349097272,
                                                     53.142589737177005
                                                 ],
                                                 [
                                                     -4.271800926888825,
                                                     53.142953938672491
                                                 ],
                                                 [
                                                     -4.271750298936345,
                                                     53.143268914024638
                                                 ],
                                                 [
                                                     -4.271662684300939,
                                                     53.143544823039477
                                                 ],
                                                 [
                                                     -4.271665722189823,
                                                     53.143651135789
                                                 ],
                                                 [
                                                     -4.271758579702772,
                                                     53.143875363788375
                                                 ],
                                                 [
                                                     -4.272317084487177,
                                                     53.143964704506594
                                                 ],
                                                 [
                                                     -4.272608610718751,
                                                     53.144013760861959
                                                 ],
                                                 [
                                                     -4.27279676086092,
                                                     53.144055366350038
                                                 ],
                                                 [
                                                     -4.273010132636346,
                                                     53.144125036056444
                                                 ],
                                                 [
                                                     -4.273480609345916,
                                                     53.144268296958089
                                                 ],
                                                 [
                                                     -4.273725478006663,
                                                     53.144334984744937
                                                 ],
                                                 [
                                                     -4.27357334553029,
                                                     53.144525820230761
                                                 ],
                                                 [
                                                     -4.273466443187239,
                                                     53.144599227776055
                                                 ],
                                                 [
                                                     -4.274049483608706,
                                                     53.144873686107509
                                                 ],
                                                 [
                                                     -4.274186067264461,
                                                     53.14493697988835
                                                 ],
                                                 [
                                                     -4.274405278842396,
                                                     53.145032950000733
                                                 ],
                                                 [
                                                     -4.274591588801518,
                                                     53.145117499762094
                                                 ],
                                                 [
                                                     -4.274483201063144,
                                                     53.145246873661222
                                                 ],
                                                 [
                                                     -4.274276092137077,
                                                     53.145348937654788
                                                 ],
                                                 [
                                                     -4.273906520130532,
                                                     53.145536240989522
                                                 ],
                                                 [
                                                     -4.273575576716911,
                                                     53.145736493936532
                                                 ],
                                                 [
                                                     -4.273228841250609,
                                                     53.145958333565439
                                                 ],
                                                 [
                                                     -4.272940698676004,
                                                     53.14614560697926
                                                 ],
                                                 [
                                                     -4.272606557985109,
                                                     53.146357325877531
                                                 ],
                                                 [
                                                     -4.272265071569683,
                                                     53.146573746935204
                                                 ],
                                                 [
                                                     -4.271940249935217,
                                                     53.146746500046369
                                                 ],
                                                 [
                                                     -4.271572942233835,
                                                     53.146977101510508
                                                 ],
                                                 [
                                                     -4.271239027513424,
                                                     53.147193375011348
                                                 ],
                                                 [
                                                     -4.27085486425215,
                                                     53.147392354686382
                                                 ],
                                                 [
                                                     -4.270715374620166,
                                                     53.147481714476626
                                                 ],
                                                 [
                                                     -4.270531772451071,
                                                     53.147670020912436
                                                 ],
                                                 [
                                                     -4.270438016282557,
                                                     53.147763070813696
                                                 ],
                                                 [
                                                     -4.27028185430993,
                                                     53.147896096913925
                                                 ],
                                                 [
                                                     -4.270183400292678,
                                                     53.148043993590015
                                                 ],
                                                 [
                                                     -4.270123939491354,
                                                     53.148211679924486
                                                 ],
                                                 [
                                                     -4.270079643739028,
                                                     53.148379076088489
                                                 ],
                                                 [
                                                     -4.270030897762081,
                                                     53.14846214139633
                                                 ],
                                                 [
                                                     -4.269954048717725,
                                                     53.148516082517617
                                                 ],
                                                 [
                                                     -4.269778205080661,
                                                     53.148635793693977
                                                 ],
                                                 [
                                                     -4.269627938079678,
                                                     53.148736765335926
                                                 ],
                                                 [
                                                     -4.269534897668692,
                                                     53.148843490393368
                                                 ],
                                                 [
                                                     -4.269507390788673,
                                                     53.148969499277861
                                                 ],
                                                 [
                                                     -4.269433666392855,
                                                     53.149082699819758
                                                 ],
                                                 [
                                                     -4.269356151325289,
                                                     53.149195973483799
                                                 ],
                                                 [
                                                     -4.269233805555955,
                                                     53.1492507815571
                                                 ],
                                                 [
                                                     -4.269076312085866,
                                                     53.149358734121286
                                                 ],
                                                 [
                                                     -4.268836363110831,
                                                     53.149630247513194
                                                 ],
                                                 [
                                                     -4.268637874144401,
                                                     53.149896407275875
                                                 ],
                                                 [
                                                     -4.268595614487566,
                                                     53.150102550767208
                                                 ],
                                                 [
                                                     -4.268458209033319,
                                                     53.150303663721452
                                                 ],
                                                 [
                                                     -4.268316226030462,
                                                     53.15056190117059
                                                 ],
                                                 [
                                                     -4.268233711603451,
                                                     53.15065245307435
                                                 ],
                                                 [
                                                     -4.268158899481691,
                                                     53.150745140036001
                                                 ],
                                                 [
                                                     -4.267991280203645,
                                                     53.150949109136661
                                                 ],
                                                 [
                                                     -4.267853269937631,
                                                     53.151138824282263
                                                 ],
                                                 [
                                                     -4.267732839319348,
                                                     53.151230099130565
                                                 ],
                                                 [
                                                     -4.267503885870547,
                                                     53.151494555338324
                                                 ],
                                                 [
                                                     -4.26733493759027,
                                                     53.151673451542251
                                                 ],
                                                 [
                                                     -4.267286423002094,
                                                     53.151761074088675
                                                 ],
                                                 [
                                                     -4.267119703225484,
                                                     53.151910268313188
                                                 ],
                                                 [
                                                     -4.26691602977686,
                                                     53.152078417622974
                                                 ],
                                                 [
                                                     -4.266679018172088,
                                                     53.152190163131266
                                                 ],
                                                 [
                                                     -4.266239185400911,
                                                     53.152342274788438
                                                 ],
                                                 [
                                                     -4.265989888295392,
                                                     53.152509010100239
                                                 ],
                                                 [
                                                     -4.265857594694812,
                                                     53.152591382139398
                                                 ],
                                                 [
                                                     -4.265746129508128,
                                                     53.152636852691685
                                                 ],
                                                 [
                                                     -4.265641337577107,
                                                     53.152736953411299
                                                 ],
                                                 [
                                                     -4.265553820758089,
                                                     53.152804783249337
                                                 ],
                                                 [
                                                     -4.26540895146579,
                                                     53.152864578817457
                                                 ],
                                                 [
                                                     -4.265288630873694,
                                                     53.152958129983247
                                                 ],
                                                 [
                                                     -4.265220912737525,
                                                     53.153041554207924
                                                 ],
                                                 [
                                                     -4.264968414017496,
                                                     53.153219754980604
                                                 ],
                                                 [
                                                     -4.264792467193253,
                                                     53.153410189110424
                                                 ],
                                                 [
                                                     -4.264646010636276,
                                                     53.15358409045708
                                                 ],
                                                 [
                                                     -4.264498882102676,
                                                     53.153817323649484
                                                 ],
                                                 [
                                                     -4.264367830613145,
                                                     53.1539954953289
                                                 ],
                                                 [
                                                     -4.264216979682044,
                                                     53.154158072045533
                                                 ],
                                                 [
                                                     -4.264013955773938,
                                                     53.154266883648887
                                                 ],
                                                 [
                                                     -4.263713112117094,
                                                     53.15446425446703
                                                 ],
                                                 [
                                                     -4.263503701835443,
                                                     53.154596001925242
                                                 ],
                                                 [
                                                     -4.263296521938483,
                                                     53.154698047425036
                                                 ],
                                                 [
                                                     -4.263126300544253,
                                                     53.154781137461242
                                                 ],
                                                 [
                                                     -4.262999825560299,
                                                     53.154902181387342
                                                 ],
                                                 [
                                                     -4.262908674363097,
                                                     53.155045368936015
                                                 ],
                                                 [
                                                     -4.262904733854788,
                                                     53.155186899394508
                                                 ],
                                                 [
                                                     -4.262896402786879,
                                                     53.155317104771356
                                                 ],
                                                 [
                                                     -4.26279020372069,
                                                     53.155462860168477
                                                 ],
                                                 [
                                                     -4.262641573885298,
                                                     53.155595732479291
                                                 ],
                                                 [
                                                     -4.26257041382541,
                                                     53.155686064380355
                                                 ],
                                                 [
                                                     -4.262454756869011,
                                                     53.155868504051412
                                                 ],
                                                 [
                                                     -4.26224897670386,
                                                     53.15614163569753
                                                 ],
                                                 [
                                                     -4.262062828967722,
                                                     53.156355073767472
                                                 ],
                                                 [
                                                     -4.261921582583001,
                                                     53.156556250663499
                                                 ],
                                                 [
                                                     -4.261862318401072,
                                                     53.156728491439459
                                                 ],
                                                 [
                                                     -4.261851869727447,
                                                     53.156890678861252
                                                 ],
                                                 [
                                                     -4.261840776725054,
                                                     53.156968461251616
                                                 ],
                                                 [
                                                     -4.261778876072166,
                                                     53.157090558622009
                                                 ],
                                                 [
                                                     -4.26170986940525,
                                                     53.157221916725419
                                                 ],
                                                 [
                                                     -4.261666642108455,
                                                     53.157266087626489
                                                 ],
                                                 [
                                                     -4.261467389755197,
                                                     53.157374823000687
                                                 ],
                                                 [
                                                     -4.261271687850655,
                                                     53.157478928607702
                                                 ],
                                                 [
                                                     -4.261217444561049,
                                                     53.157530152468361
                                                 ],
                                                 [
                                                     -4.26119665328183,
                                                     53.157640060939862
                                                 ],
                                                 [
                                                     -4.261195736847622,
                                                     53.15769483465786
                                                 ],
                                                 [
                                                     -4.261050091863712,
                                                     53.157884686326859
                                                 ],
                                                 [
                                                     -4.260868862376692,
                                                     53.158037172322906
                                                 ]
                                             ]
                                         ]
                                     ]
                 }
}