{
    "type":  "Feature",
    "properties":  {
                       "Name":  "Peblig ED",
                       "Area_Code":  "UTE",
                       "Area_Description":  "Unitary Authority Electoral Division",
                       "File_Name":  "GWYNEDD_-_GWYNEDD",
                       "Feature_Serial_Number":  285,
                       "Collection_Serial_Number":  285,
                       "Global_Polygon_ID":  142494,
                       "Admin_Unit_ID":  182739,
                       "Census_Code":  "W05001555",
                       "Hectares":  102.912,
                       "Non_Inland_Area":  0.0,
                       "Area_Type_Code":  "VA",
                       "Area_Type_Description":  "CIVIL VOTING AREA",
                       "Non_Area_Type_Code":  null,
                       "Non_Area_Type_Description":  null
                   },
    "geometry":  {
                     "type":  "MultiPolygon",
                     "coordinates":  [
                                         [
                                             [
                                                 [
                                                     -4.242346763500625,
                                                     53.141989101622492
                                                 ],
                                                 [
                                                     -4.242398578068241,
                                                     53.141892759175356
                                                 ],
                                                 [
                                                     -4.243435520021484,
                                                     53.140386192826639
                                                 ],
                                                 [
                                                     -4.243955597601745,
                                                     53.13966424481157
                                                 ],
                                                 [
                                                     -4.244286555985392,
                                                     53.139216587929447
                                                 ],
                                                 [
                                                     -4.244701595304523,
                                                     53.138629733347429
                                                 ],
                                                 [
                                                     -4.244733913204838,
                                                     53.138592271959439
                                                 ],
                                                 [
                                                     -4.24480321665275,
                                                     53.138630513895428
                                                 ],
                                                 [
                                                     -4.245850660921808,
                                                     53.137642441253519
                                                 ],
                                                 [
                                                     -4.246190273543434,
                                                     53.13744628829857
                                                 ],
                                                 [
                                                     -4.246064272596475,
                                                     53.137325527126308
                                                 ],
                                                 [
                                                     -4.245956821944494,
                                                     53.137127923966432
                                                 ],
                                                 [
                                                     -4.245900911975544,
                                                     53.136944718904097
                                                 ],
                                                 [
                                                     -4.245730995161346,
                                                     53.136667399728026
                                                 ],
                                                 [
                                                     -4.245845595149518,
                                                     53.136657148070839
                                                 ],
                                                 [
                                                     -4.245947030821031,
                                                     53.136623774719482
                                                 ],
                                                 [
                                                     -4.246083739072864,
                                                     53.13652223288787
                                                 ],
                                                 [
                                                     -4.246185625406276,
                                                     53.136412450736437
                                                 ],
                                                 [
                                                     -4.246179864710574,
                                                     53.136245376560517
                                                 ],
                                                 [
                                                     -4.24613938476644,
                                                     53.136157066019038
                                                 ],
                                                 [
                                                     -4.246093419815465,
                                                     53.136077038895351
                                                 ],
                                                 [
                                                     -4.246033930477847,
                                                     53.136026028853863
                                                 ],
                                                 [
                                                     -4.245983142147146,
                                                     53.136000022774951
                                                 ],
                                                 [
                                                     -4.245827549503168,
                                                     53.135912087229862
                                                 ],
                                                 [
                                                     -4.24570816006165,
                                                     53.135771425471347
                                                 ],
                                                 [
                                                     -4.245652179987417,
                                                     53.135615187080013
                                                 ],
                                                 [
                                                     -4.245654967158412,
                                                     53.135354383387593
                                                 ],
                                                 [
                                                     -4.245694679189779,
                                                     53.135026369208497
                                                 ],
                                                 [
                                                     -4.245736107818958,
                                                     53.134875392810919
                                                 ],
                                                 [
                                                     -4.245944752078673,
                                                     53.134718653433353
                                                 ],
                                                 [
                                                     -4.246104383500019,
                                                     53.134626567071294
                                                 ],
                                                 [
                                                     -4.246212906964534,
                                                     53.134528343227529
                                                 ],
                                                 [
                                                     -4.246325392319479,
                                                     53.134477683640938
                                                 ],
                                                 [
                                                     -4.246517082858643,
                                                     53.134397664237895
                                                 ],
                                                 [
                                                     -4.246823450555902,
                                                     53.134283032276727
                                                 ],
                                                 [
                                                     -4.247122672888727,
                                                     53.134142557939136
                                                 ],
                                                 [
                                                     -4.247390017670877,
                                                     53.134024256678636
                                                 ],
                                                 [
                                                     -4.247536125598741,
                                                     53.13398725200063
                                                 ],
                                                 [
                                                     -4.247682539709536,
                                                     53.133984486780427
                                                 ],
                                                 [
                                                     -4.247807644966223,
                                                     53.134005582907982
                                                 ],
                                                 [
                                                     -4.247919086177053,
                                                     53.134078979906398
                                                 ],
                                                 [
                                                     -4.247962970621198,
                                                     53.134116801033663
                                                 ],
                                                 [
                                                     -4.247989604309976,
                                                     53.134140566166778
                                                 ],
                                                 [
                                                     -4.248056339916968,
                                                     53.134245367551792
                                                 ],
                                                 [
                                                     -4.248105529022857,
                                                     53.134384746684439
                                                 ],
                                                 [
                                                     -4.248148023220022,
                                                     53.134511577802719
                                                 ],
                                                 [
                                                     -4.248178315600073,
                                                     53.134605382986308
                                                 ],
                                                 [
                                                     -4.24824034368959,
                                                     53.134648343910783
                                                 ],
                                                 [
                                                     -4.248299715988124,
                                                     53.134668794122021
                                                 ],
                                                 [
                                                     -4.248378263294318,
                                                     53.134683489299945
                                                 ],
                                                 [
                                                     -4.248442731483273,
                                                     53.134685866768329
                                                 ],
                                                 [
                                                     -4.248465049732361,
                                                     53.134683646924572
                                                 ],
                                                 [
                                                     -4.24852191310451,
                                                     53.134684370750193
                                                 ],
                                                 [
                                                     -4.248799460549046,
                                                     53.13467642922145
                                                 ],
                                                 [
                                                     -4.249199870668198,
                                                     53.13464189772855
                                                 ],
                                                 [
                                                     -4.249315613576946,
                                                     53.134681955714179
                                                 ],
                                                 [
                                                     -4.249488379991664,
                                                     53.134784752239618
                                                 ],
                                                 [
                                                     -4.249569721505928,
                                                     53.134881187612983
                                                 ],
                                                 [
                                                     -4.249588890952871,
                                                     53.134905992579789
                                                 ],
                                                 [
                                                     -4.249725338478282,
                                                     53.135085067163871
                                                 ],
                                                 [
                                                     -4.249885792561984,
                                                     53.135237621339158
                                                 ],
                                                 [
                                                     -4.250294186768697,
                                                     53.135499549492486
                                                 ],
                                                 [
                                                     -4.25157747416442,
                                                     53.136280901609659
                                                 ],
                                                 [
                                                     -4.25188850519887,
                                                     53.136368495123108
                                                 ],
                                                 [
                                                     -4.252259696162406,
                                                     53.136432569176492
                                                 ],
                                                 [
                                                     -4.252542749347853,
                                                     53.136442492113424
                                                 ],
                                                 [
                                                     -4.253028779508846,
                                                     53.136416123749477
                                                 ],
                                                 [
                                                     -4.253427177668839,
                                                     53.13637352621636
                                                 ],
                                                 [
                                                     -4.253613684068215,
                                                     53.136335839075173
                                                 ],
                                                 [
                                                     -4.253777223621254,
                                                     53.136233870958456
                                                 ],
                                                 [
                                                     -4.253790245210089,
                                                     53.136167110554823
                                                 ],
                                                 [
                                                     -4.253550080099759,
                                                     53.135865066030426
                                                 ],
                                                 [
                                                     -4.253486818025476,
                                                     53.135742135526719
                                                 ],
                                                 [
                                                     -4.253468202562746,
                                                     53.135671480558592
                                                 ],
                                                 [
                                                     -4.253448599838353,
                                                     53.135581967879332
                                                 ],
                                                 [
                                                     -4.253442587055707,
                                                     53.135554218022719
                                                 ],
                                                 [
                                                     -4.253449132155263,
                                                     53.135507354878499
                                                 ],
                                                 [
                                                     -4.253456632521815,
                                                     53.135450496439496
                                                 ],
                                                 [
                                                     -4.253517221014677,
                                                     53.13535047709879
                                                 ],
                                                 [
                                                     -4.253622792010395,
                                                     53.135254999558612
                                                 ],
                                                 [
                                                     -4.253814538594881,
                                                     53.135148002637493
                                                 ],
                                                 [
                                                     -4.253972722809872,
                                                     53.135056831194817
                                                 ],
                                                 [
                                                     -4.254141029344022,
                                                     53.134987129596844
                                                 ],
                                                 [
                                                     -4.254263133672064,
                                                     53.134976727633827
                                                 ],
                                                 [
                                                     -4.254479761268185,
                                                     53.134975320435217
                                                 ],
                                                 [
                                                     -4.254594401433365,
                                                     53.134965957722763
                                                 ],
                                                 [
                                                     -4.25481224590255,
                                                     53.134900710307896
                                                 ],
                                                 [
                                                     -4.255071662937604,
                                                     53.134772564654362
                                                 ],
                                                 [
                                                     -4.255294523009299,
                                                     53.134659582974713
                                                 ],
                                                 [
                                                     -4.255453007736194,
                                                     53.134546022753369
                                                 ],
                                                 [
                                                     -4.255573064711618,
                                                     53.134383665125235
                                                 ],
                                                 [
                                                     -4.255952633805012,
                                                     53.134438489763795
                                                 ],
                                                 [
                                                     -4.25680398886808,
                                                     53.134536590213145
                                                 ],
                                                 [
                                                     -4.258044316649054,
                                                     53.134640696857964
                                                 ],
                                                 [
                                                     -4.258675703254668,
                                                     53.134706913766472
                                                 ],
                                                 [
                                                     -4.259195697902673,
                                                     53.134787915603525
                                                 ],
                                                 [
                                                     -4.260156307754738,
                                                     53.135001575001162
                                                 ],
                                                 [
                                                     -4.260624173600813,
                                                     53.135113223473205
                                                 ],
                                                 [
                                                     -4.260848565496155,
                                                     53.135172778344788
                                                 ],
                                                 [
                                                     -4.261067207083945,
                                                     53.135237834801451
                                                 ],
                                                 [
                                                     -4.261377484378495,
                                                     53.135338990623609
                                                 ],
                                                 [
                                                     -4.261857313209113,
                                                     53.13550694187149
                                                 ],
                                                 [
                                                     -4.262328228587175,
                                                     53.135678746930516
                                                 ],
                                                 [
                                                     -4.262802644575397,
                                                     53.135858482813688
                                                 ],
                                                 [
                                                     -4.263190891308902,
                                                     53.136019271728287
                                                 ],
                                                 [
                                                     -4.263562680891386,
                                                     53.136181181595809
                                                 ],
                                                 [
                                                     -4.263829933909729,
                                                     53.136286744896651
                                                 ],
                                                 [
                                                     -4.264104243105292,
                                                     53.136385791610202
                                                 ],
                                                 [
                                                     -4.264501141702418,
                                                     53.136514054291013
                                                 ],
                                                 [
                                                     -4.265114307751889,
                                                     53.136697833733066
                                                 ],
                                                 [
                                                     -4.265525033334813,
                                                     53.136820933414789
                                                 ],
                                                 [
                                                     -4.267032827730939,
                                                     53.137259704895648
                                                 ],
                                                 [
                                                     -4.26825475784015,
                                                     53.137723770736088
                                                 ],
                                                 [
                                                     -4.26848143733296,
                                                     53.137795850589924
                                                 ],
                                                 [
                                                     -4.269115235137408,
                                                     53.138021150988678
                                                 ],
                                                 [
                                                     -4.269574909626085,
                                                     53.138175074819465
                                                 ],
                                                 [
                                                     -4.270321290622364,
                                                     53.138463836741522
                                                 ],
                                                 [
                                                     -4.270619679687456,
                                                     53.138613512823227
                                                 ],
                                                 [
                                                     -4.270633413967499,
                                                     53.138692910421689
                                                 ],
                                                 [
                                                     -4.270643650028759,
                                                     53.138864866247907
                                                 ],
                                                 [
                                                     -4.270698754355793,
                                                     53.139311537084083
                                                 ],
                                                 [
                                                     -4.270731333140619,
                                                     53.13944506194796
                                                 ],
                                                 [
                                                     -4.270794659426675,
                                                     53.139704596905062
                                                 ],
                                                 [
                                                     -4.270885826791571,
                                                     53.139981208429575
                                                 ],
                                                 [
                                                     -4.27045533408429,
                                                     53.1400282743272
                                                 ],
                                                 [
                                                     -4.270274656572529,
                                                     53.140054867263743
                                                 ],
                                                 [
                                                     -4.270055532388441,
                                                     53.140107449669287
                                                 ],
                                                 [
                                                     -4.269843053690583,
                                                     53.140204277840638
                                                 ],
                                                 [
                                                     -4.269442185145497,
                                                     53.140404609774251
                                                 ],
                                                 [
                                                     -4.268920899409914,
                                                     53.140687921493004
                                                 ],
                                                 [
                                                     -4.268602996720492,
                                                     53.140848731606617
                                                 ],
                                                 [
                                                     -4.268183958508451,
                                                     53.141060697221818
                                                 ],
                                                 [
                                                     -4.267843579894858,
                                                     53.141212884231443
                                                 ],
                                                 [
                                                     -4.267469828620131,
                                                     53.14132606868877
                                                 ],
                                                 [
                                                     -4.267246097440707,
                                                     53.141338421909872
                                                 ],
                                                 [
                                                     -4.266921840674589,
                                                     53.141185280366301
                                                 ],
                                                 [
                                                     -4.266663748838458,
                                                     53.141052882226816
                                                 ],
                                                 [
                                                     -4.266435716299214,
                                                     53.140929718409012
                                                 ],
                                                 [
                                                     -4.266254151689279,
                                                     53.140847537352585
                                                 ],
                                                 [
                                                     -4.266092465759669,
                                                     53.140782200531042
                                                 ],
                                                 [
                                                     -4.265964048158995,
                                                     53.140740667407293
                                                 ],
                                                 [
                                                     -4.265971303312541,
                                                     53.140724345620207
                                                 ],
                                                 [
                                                     -4.265960646089876,
                                                     53.14072095305859
                                                 ],
                                                 [
                                                     -4.265475904727794,
                                                     53.140601647953929
                                                 ],
                                                 [
                                                     -4.265130207174467,
                                                     53.140568589639209
                                                 ],
                                                 [
                                                     -4.26479468552398,
                                                     53.140557896690133
                                                 ],
                                                 [
                                                     -4.263558517940186,
                                                     53.140536472883277
                                                 ],
                                                 [
                                                     -4.263145940843923,
                                                     53.14050926436024
                                                 ],
                                                 [
                                                     -4.26302059880979,
                                                     53.140486480393555
                                                 ],
                                                 [
                                                     -4.262907999312702,
                                                     53.140448173956031
                                                 ],
                                                 [
                                                     -4.262843395325357,
                                                     53.140415246717836
                                                 ],
                                                 [
                                                     -4.262699513820017,
                                                     53.140323604655549
                                                 ],
                                                 [
                                                     -4.262591029858052,
                                                     53.140250973289611
                                                 ],
                                                 [
                                                     -4.261954201334728,
                                                     53.139768630334551
                                                 ],
                                                 [
                                                     -4.261671712255674,
                                                     53.139629196691686
                                                 ],
                                                 [
                                                     -4.261412762065718,
                                                     53.139538840664024
                                                 ],
                                                 [
                                                     -4.261267991997482,
                                                     53.139514626751748
                                                 ],
                                                 [
                                                     -4.261028660879493,
                                                     53.139483220067383
                                                 ],
                                                 [
                                                     -4.26066927175128,
                                                     53.139445106160231
                                                 ],
                                                 [
                                                     -4.260423701591948,
                                                     53.139438085042158
                                                 ],
                                                 [
                                                     -4.260310339583365,
                                                     53.139443833538408
                                                 ],
                                                 [
                                                     -4.260158609247936,
                                                     53.139458400597732
                                                 ],
                                                 [
                                                     -4.259974702388234,
                                                     53.139487060343392
                                                 ],
                                                 [
                                                     -4.259764654791029,
                                                     53.139529698019963
                                                 ],
                                                 [
                                                     -4.259462278962434,
                                                     53.139610041944437
                                                 ],
                                                 [
                                                     -4.259123068433489,
                                                     53.139726139843049
                                                 ],
                                                 [
                                                     -4.258814370181921,
                                                     53.139855228532241
                                                 ],
                                                 [
                                                     -4.258478961265204,
                                                     53.14001799163492
                                                 ],
                                                 [
                                                     -4.258238811650617,
                                                     53.140114318778089
                                                 ],
                                                 [
                                                     -4.258100766812555,
                                                     53.140161879970648
                                                 ],
                                                 [
                                                     -4.258022849266003,
                                                     53.140187626552425
                                                 ],
                                                 [
                                                     -4.257755624549116,
                                                     53.140252019107919
                                                 ],
                                                 [
                                                     -4.257152753530791,
                                                     53.140390190067876
                                                 ],
                                                 [
                                                     -4.256907741588625,
                                                     53.140478517576639
                                                 ],
                                                 [
                                                     -4.256682482689746,
                                                     53.140574470134375
                                                 ],
                                                 [
                                                     -4.256522001910279,
                                                     53.140650318583312
                                                 ],
                                                 [
                                                     -4.256417356082552,
                                                     53.140707131835612
                                                 ],
                                                 [
                                                     -4.256315810506603,
                                                     53.14076667159933
                                                 ],
                                                 [
                                                     -4.256214732273356,
                                                     53.140835101608303
                                                 ],
                                                 [
                                                     -4.256132875892501,
                                                     53.140898672596464
                                                 ],
                                                 [
                                                     -4.255940511507589,
                                                     53.141081276610009
                                                 ],
                                                 [
                                                     -4.255648528307395,
                                                     53.141386122345033
                                                 ],
                                                 [
                                                     -4.255526919411577,
                                                     53.141490983565276
                                                 ],
                                                 [
                                                     -4.255416168469716,
                                                     53.141574876208409
                                                 ],
                                                 [
                                                     -4.255321940246573,
                                                     53.141630591950054
                                                 ],
                                                 [
                                                     -4.2551919358291,
                                                     53.141690580987934
                                                 ],
                                                 [
                                                     -4.255115684040667,
                                                     53.141719979428068
                                                 ],
                                                 [
                                                     -4.254916983014032,
                                                     53.141779471617518
                                                 ],
                                                 [
                                                     -4.254674524237839,
                                                     53.141803839631628
                                                 ],
                                                 [
                                                     -4.254090249743833,
                                                     53.141810412254493
                                                 ],
                                                 [
                                                     -4.253385722853481,
                                                     53.141806676089665
                                                 ],
                                                 [
                                                     -4.253183776187623,
                                                     53.141804207617213
                                                 ],
                                                 [
                                                     -4.253031469177501,
                                                     53.141807990032852
                                                 ],
                                                 [
                                                     -4.252759033998144,
                                                     53.141832021604628
                                                 ],
                                                 [
                                                     -4.251930498604678,
                                                     53.141969943274788
                                                 ],
                                                 [
                                                     -4.251781759407017,
                                                     53.141985341141364
                                                 ],
                                                 [
                                                     -4.251631447243533,
                                                     53.141998970400891
                                                 ],
                                                 [
                                                     -4.251351101946299,
                                                     53.142013261994514
                                                 ],
                                                 [
                                                     -4.250789726138755,
                                                     53.142031070681007
                                                 ],
                                                 [
                                                     -4.2502023488291,
                                                     53.142034986488575
                                                 ],
                                                 [
                                                     -4.24732361509178,
                                                     53.141999495738581
                                                 ],
                                                 [
                                                     -4.244037264022268,
                                                     53.142005777017147
                                                 ],
                                                 [
                                                     -4.242346763500625,
                                                     53.141989101622492
                                                 ]
                                             ]
                                         ]
                                     ]
                 }
}