{
    "type":  "Feature",
    "properties":  {
                       "Name":  "Y Bala ED",
                       "Area_Code":  "UTE",
                       "Area_Description":  "Unitary Authority Electoral Division",
                       "File_Name":  "GWYNEDD_-_GWYNEDD",
                       "Feature_Serial_Number":  291,
                       "Collection_Serial_Number":  291,
                       "Global_Polygon_ID":  142515,
                       "Admin_Unit_ID":  182760,
                       "Census_Code":  "W05001566",
                       "Hectares":  262.407,
                       "Non_Inland_Area":  0.0,
                       "Area_Type_Code":  "VA",
                       "Area_Type_Description":  "CIVIL VOTING AREA",
                       "Non_Area_Type_Code":  null,
                       "Non_Area_Type_Description":  null
                   },
    "geometry":  {
                     "type":  "MultiPolygon",
                     "coordinates":  [
                                         [
                                             [
                                                 [
                                                     -3.586754341047496,
                                                     52.906592081146961
                                                 ],
                                                 [
                                                     -3.587127148408978,
                                                     52.906376698001509
                                                 ],
                                                 [
                                                     -3.587521499065944,
                                                     52.906140353503048
                                                 ],
                                                 [
                                                     -3.588599336760937,
                                                     52.905484939295505
                                                 ],
                                                 [
                                                     -3.589328901928313,
                                                     52.905022109621719
                                                 ],
                                                 [
                                                     -3.589833782788508,
                                                     52.904721364187999
                                                 ],
                                                 [
                                                     -3.590801711889765,
                                                     52.904109643293502
                                                 ],
                                                 [
                                                     -3.591605560404868,
                                                     52.903567520627426
                                                 ],
                                                 [
                                                     -3.592022513568585,
                                                     52.903300299981929
                                                 ],
                                                 [
                                                     -3.592253979860617,
                                                     52.903166875763993
                                                 ],
                                                 [
                                                     -3.592459999447412,
                                                     52.903108388967624
                                                 ],
                                                 [
                                                     -3.592545339649329,
                                                     52.903082079020493
                                                 ],
                                                 [
                                                     -3.592616126161456,
                                                     52.903066749803045
                                                 ],
                                                 [
                                                     -3.593177646176599,
                                                     52.902971048633347
                                                 ],
                                                 [
                                                     -3.593721785726055,
                                                     52.902929594210569
                                                 ],
                                                 [
                                                     -3.594349136844402,
                                                     52.902927464616447
                                                 ],
                                                 [
                                                     -3.594587316002947,
                                                     52.902973698689586
                                                 ],
                                                 [
                                                     -3.59491956786908,
                                                     52.903074483103488
                                                 ],
                                                 [
                                                     -3.595914594995966,
                                                     52.903406332200305
                                                 ],
                                                 [
                                                     -3.596207326823299,
                                                     52.903482387800729
                                                 ],
                                                 [
                                                     -3.596460668609644,
                                                     52.903537402796417
                                                 ],
                                                 [
                                                     -3.596715159225155,
                                                     52.903587008551156
                                                 ],
                                                 [
                                                     -3.596971681667098,
                                                     52.903605129519477
                                                 ],
                                                 [
                                                     -3.597417100488447,
                                                     52.903669332978005
                                                 ],
                                                 [
                                                     -3.597522933050817,
                                                     52.903676896892684
                                                 ],
                                                 [
                                                     -3.597677747410103,
                                                     52.903682902713399
                                                 ],
                                                 [
                                                     -3.597997382589671,
                                                     52.903680400076055
                                                 ],
                                                 [
                                                     -3.598623931249405,
                                                     52.903616243027933
                                                 ],
                                                 [
                                                     -3.599193912537495,
                                                     52.9035473630735
                                                 ],
                                                 [
                                                     -3.599250068620163,
                                                     52.903537619271845
                                                 ],
                                                 [
                                                     -3.599470561535151,
                                                     52.903509484163081
                                                 ],
                                                 [
                                                     -3.600762740223359,
                                                     52.90327097547754
                                                 ],
                                                 [
                                                     -3.601464352935734,
                                                     52.9031050402982
                                                 ],
                                                 [
                                                     -3.601727420720481,
                                                     52.903021501475799
                                                 ],
                                                 [
                                                     -3.601926205783811,
                                                     52.902966691860826
                                                 ],
                                                 [
                                                     -3.602377394095697,
                                                     52.902785254906043
                                                 ],
                                                 [
                                                     -3.602731552772254,
                                                     52.90263217841391
                                                 ],
                                                 [
                                                     -3.603016028838478,
                                                     52.902484445830751
                                                 ],
                                                 [
                                                     -3.603216059012269,
                                                     52.902383779433272
                                                 ],
                                                 [
                                                     -3.603506733208745,
                                                     52.902241354335757
                                                 ],
                                                 [
                                                     -3.603586536893821,
                                                     52.902188148441098
                                                 ],
                                                 [
                                                     -3.60401859801724,
                                                     52.902415184644028
                                                 ],
                                                 [
                                                     -3.607360293085863,
                                                     52.904321769037701
                                                 ],
                                                 [
                                                     -3.609142076980579,
                                                     52.905296442154793
                                                 ],
                                                 [
                                                     -3.609723004657934,
                                                     52.905525934843091
                                                 ],
                                                 [
                                                     -3.609934439270312,
                                                     52.905653479788455
                                                 ],
                                                 [
                                                     -3.609970930843154,
                                                     52.905675454469154
                                                 ],
                                                 [
                                                     -3.610881319264903,
                                                     52.906044277628311
                                                 ],
                                                 [
                                                     -3.611362528740946,
                                                     52.906229187255121
                                                 ],
                                                 [
                                                     -3.611740011596216,
                                                     52.906384135679808
                                                 ],
                                                 [
                                                     -3.611895604396258,
                                                     52.90641078469902
                                                 ],
                                                 [
                                                     -3.611970064336544,
                                                     52.906415166393927
                                                 ],
                                                 [
                                                     -3.612062247343111,
                                                     52.906414814123579
                                                 ],
                                                 [
                                                     -3.612217832251944,
                                                     52.906398321198964
                                                 ],
                                                 [
                                                     -3.612603635678682,
                                                     52.906377804023855
                                                 ],
                                                 [
                                                     -3.612920622300203,
                                                     52.906465173971426
                                                 ],
                                                 [
                                                     -3.613123849701551,
                                                     52.906529820916909
                                                 ],
                                                 [
                                                     -3.61330655906885,
                                                     52.90660652081872
                                                 ],
                                                 [
                                                     -3.613514228575024,
                                                     52.906711552208527
                                                 ],
                                                 [
                                                     -3.614188975309736,
                                                     52.906821919262654
                                                 ],
                                                 [
                                                     -3.614282231112165,
                                                     52.906810765057337
                                                 ],
                                                 [
                                                     -3.614384297468651,
                                                     52.906795895796876
                                                 ],
                                                 [
                                                     -3.61450923438845,
                                                     52.906795995399257
                                                 ],
                                                 [
                                                     -3.614669139721332,
                                                     52.906819885088723
                                                 ],
                                                 [
                                                     -3.614806869305468,
                                                     52.906844166902644
                                                 ],
                                                 [
                                                     -3.614837817405303,
                                                     52.906875203060913
                                                 ],
                                                 [
                                                     -3.614922494248546,
                                                     52.907032235538935
                                                 ],
                                                 [
                                                     -3.614946901865683,
                                                     52.907048979762443
                                                 ],
                                                 [
                                                     -3.615310140336418,
                                                     52.907061116681042
                                                 ],
                                                 [
                                                     -3.61545060736763,
                                                     52.907040331815942
                                                 ],
                                                 [
                                                     -3.61568135662034,
                                                     52.907047079339577
                                                 ],
                                                 [
                                                     -3.615887093027468,
                                                     52.907020911718583
                                                 ],
                                                 [
                                                     -3.616075440707849,
                                                     52.906968916653675
                                                 ],
                                                 [
                                                     -3.61623796342751,
                                                     52.906898397665941
                                                 ],
                                                 [
                                                     -3.616393384491268,
                                                     52.906801822390328
                                                 ],
                                                 [
                                                     -3.616437560131997,
                                                     52.906829172789287
                                                 ],
                                                 [
                                                     -3.616766314458939,
                                                     52.907031414664495
                                                 ],
                                                 [
                                                     -3.617013539576675,
                                                     52.907200702505619
                                                 ],
                                                 [
                                                     -3.617220569864138,
                                                     52.907409992847775
                                                 ],
                                                 [
                                                     -3.617398113145491,
                                                     52.907545177489588
                                                 ],
                                                 [
                                                     -3.617477893401315,
                                                     52.907613295388465
                                                 ],
                                                 [
                                                     -3.617729440230216,
                                                     52.907858918694238
                                                 ],
                                                 [
                                                     -3.618026807208846,
                                                     52.908215364303693
                                                 ],
                                                 [
                                                     -3.618176921035894,
                                                     52.908413835477312
                                                 ],
                                                 [
                                                     -3.618368612540296,
                                                     52.908727680313014
                                                 ],
                                                 [
                                                     -3.618487074567602,
                                                     52.908915705981251
                                                 ],
                                                 [
                                                     -3.618585148558787,
                                                     52.909030400598652
                                                 ],
                                                 [
                                                     -3.618663229003611,
                                                     52.909092250380937
                                                 ],
                                                 [
                                                     -3.618879982137744,
                                                     52.909203440079906
                                                 ],
                                                 [
                                                     -3.619181517856832,
                                                     52.909191240758787
                                                 ],
                                                 [
                                                     -3.619674830774464,
                                                     52.909182715829004
                                                 ],
                                                 [
                                                     -3.619680103013916,
                                                     52.909202417146027
                                                 ],
                                                 [
                                                     -3.619785704177319,
                                                     52.909561473606814
                                                 ],
                                                 [
                                                     -3.61983414948063,
                                                     52.909666957478095
                                                 ],
                                                 [
                                                     -3.619846409637745,
                                                     52.909716223305097
                                                 ],
                                                 [
                                                     -3.619793015620041,
                                                     52.909757396132648
                                                 ],
                                                 [
                                                     -3.619804555480392,
                                                     52.909830039320255
                                                 ],
                                                 [
                                                     -3.619819757105931,
                                                     52.90987926413051
                                                 ],
                                                 [
                                                     -3.619904976706201,
                                                     52.909968068381829
                                                 ],
                                                 [
                                                     -3.619975120207798,
                                                     52.910056989217132
                                                 ],
                                                 [
                                                     -3.620064316830029,
                                                     52.910334481015695
                                                 ],
                                                 [
                                                     -3.62009382111206,
                                                     52.910448222705767
                                                 ],
                                                 [
                                                     -3.620143626866091,
                                                     52.910547396490934
                                                 ],
                                                 [
                                                     -3.620195250728569,
                                                     52.910613201408808
                                                 ],
                                                 [
                                                     -3.620251998781947,
                                                     52.910661859362477
                                                 ],
                                                 [
                                                     -3.620336687608871,
                                                     52.910700249471901
                                                 ],
                                                 [
                                                     -3.620318888494245,
                                                     52.910739139722075
                                                 ],
                                                 [
                                                     -3.621063706176837,
                                                     52.911209997701555
                                                 ],
                                                 [
                                                     -3.620920773540352,
                                                     52.911286546324341
                                                 ],
                                                 [
                                                     -3.62074244558585,
                                                     52.91137076823685
                                                 ],
                                                 [
                                                     -3.620637535664504,
                                                     52.911427923423986
                                                 ],
                                                 [
                                                     -3.62022436863995,
                                                     52.911754511869866
                                                 ],
                                                 [
                                                     -3.619937864542648,
                                                     52.912005671623213
                                                 ],
                                                 [
                                                     -3.61972181135117,
                                                     52.912192956806962
                                                 ],
                                                 [
                                                     -3.619751406573037,
                                                     52.912230301546856
                                                 ],
                                                 [
                                                     -3.619620127011254,
                                                     52.912339943757516
                                                 ],
                                                 [
                                                     -3.619512311870356,
                                                     52.91243767289032
                                                 ],
                                                 [
                                                     -3.619427137733942,
                                                     52.912468493243423
                                                 ],
                                                 [
                                                     -3.619293326109348,
                                                     52.912467621594914
                                                 ],
                                                 [
                                                     -3.619049291007167,
                                                     52.912463758228128
                                                 ],
                                                 [
                                                     -3.618886600542347,
                                                     52.912448000837337
                                                 ],
                                                 [
                                                     -3.618655249295224,
                                                     52.912425898709621
                                                 ],
                                                 [
                                                     -3.618519343309027,
                                                     52.912411572919716
                                                 ],
                                                 [
                                                     -3.618313746839024,
                                                     52.912402690856005
                                                 ],
                                                 [
                                                     -3.618071014796142,
                                                     52.912394314386937
                                                 ],
                                                 [
                                                     -3.617946615670387,
                                                     52.912366349356766
                                                 ],
                                                 [
                                                     -3.617822933452991,
                                                     52.912360843820423
                                                 ],
                                                 [
                                                     -3.617659304787932,
                                                     52.912319931961498
                                                 ],
                                                 [
                                                     -3.617505995908755,
                                                     52.912315728658186
                                                 ],
                                                 [
                                                     -3.617369589876468,
                                                     52.912327472964598
                                                 ],
                                                 [
                                                     -3.617296503790443,
                                                     52.912363520426851
                                                 ],
                                                 [
                                                     -3.617254793097564,
                                                     52.912438686107038
                                                 ],
                                                 [
                                                     -3.617351878271305,
                                                     52.912530027657183
                                                 ],
                                                 [
                                                     -3.617610654373528,
                                                     52.912689180496699
                                                 ],
                                                 [
                                                     -3.617665903770283,
                                                     52.912776597366424
                                                 ],
                                                 [
                                                     -3.617693265458774,
                                                     52.91291193822704
                                                 ],
                                                 [
                                                     -3.617755585745206,
                                                     52.913267991450432
                                                 ],
                                                 [
                                                     -3.617747788786613,
                                                     52.91341738291198
                                                 ],
                                                 [
                                                     -3.617802655678665,
                                                     52.913491234110822
                                                 ],
                                                 [
                                                     -3.617802204005567,
                                                     52.913561343701737
                                                 ],
                                                 [
                                                     -3.61780233795807,
                                                     52.913564937086527
                                                 ],
                                                 [
                                                     -3.617376660058111,
                                                     52.913553658714079
                                                 ],
                                                 [
                                                     -3.617386151889618,
                                                     52.913531958195996
                                                 ],
                                                 [
                                                     -3.61727959202557,
                                                     52.913545093969944
                                                 ],
                                                 [
                                                     -3.617217943989713,
                                                     52.913565705743558
                                                 ],
                                                 [
                                                     -3.617183450529177,
                                                     52.913597632389028
                                                 ],
                                                 [
                                                     -3.617191784992757,
                                                     52.913742310801432
                                                 ],
                                                 [
                                                     -3.617169750595024,
                                                     52.913828893153969
                                                 ],
                                                 [
                                                     -3.617133063533192,
                                                     52.913884217160863
                                                 ],
                                                 [
                                                     -3.616978484556199,
                                                     52.914004061099227
                                                 ],
                                                 [
                                                     -3.616902256085864,
                                                     52.914034847714071
                                                 ],
                                                 [
                                                     -3.616785711050722,
                                                     52.914059802729241
                                                 ],
                                                 [
                                                     -3.61662736108754,
                                                     52.914081731470731
                                                 ],
                                                 [
                                                     -3.616332354325246,
                                                     52.914105518992976
                                                 ],
                                                 [
                                                     -3.616175542479942,
                                                     52.914129223351338
                                                 ],
                                                 [
                                                     -3.615841068590891,
                                                     52.914133774416932
                                                 ],
                                                 [
                                                     -3.61568862298285,
                                                     52.914152925390468
                                                 ],
                                                 [
                                                     -3.615523888399097,
                                                     52.914161457705454
                                                 ],
                                                 [
                                                     -3.615379465002022,
                                                     52.914198474298516
                                                 ],
                                                 [
                                                     -3.615305426053683,
                                                     52.914205772692895
                                                 ],
                                                 [
                                                     -3.615233904555331,
                                                     52.914204947360993
                                                 ],
                                                 [
                                                     -3.615233102131007,
                                                     52.91418338792586
                                                 ],
                                                 [
                                                     -3.615102828764077,
                                                     52.914198641390058
                                                 ],
                                                 [
                                                     -3.614979609628343,
                                                     52.914205709345659
                                                 ],
                                                 [
                                                     -3.614786082106047,
                                                     52.914238000557013
                                                 ],
                                                 [
                                                     -3.614673445853513,
                                                     52.914249418539313
                                                 ],
                                                 [
                                                     -3.61458950236907,
                                                     52.914273927253518
                                                 ],
                                                 [
                                                     -3.61449409241202,
                                                     52.914306681223458
                                                 ],
                                                 [
                                                     -3.614353633555503,
                                                     52.914367909192535
                                                 ],
                                                 [
                                                     -3.614277000229374,
                                                     52.914427461267188
                                                 ],
                                                 [
                                                     -3.614201033044034,
                                                     52.91446534309091
                                                 ],
                                                 [
                                                     -3.614073800385698,
                                                     52.914522795752148
                                                 ],
                                                 [
                                                     -3.613993352590946,
                                                     52.914558941179102
                                                 ],
                                                 [
                                                     -3.61396186461448,
                                                     52.914592624075091
                                                 ],
                                                 [
                                                     -3.613954387243168,
                                                     52.914632271166539
                                                 ],
                                                 [
                                                     -3.613925896061787,
                                                     52.914664115274846
                                                 ],
                                                 [
                                                     -3.613859612325407,
                                                     52.914721728376747
                                                 ],
                                                 [
                                                     -3.613781003101355,
                                                     52.914767735266274
                                                 ],
                                                 [
                                                     -3.613668064089531,
                                                     52.914810612434785
                                                 ],
                                                 [
                                                     -3.613665624799932,
                                                     52.914824127377599
                                                 ],
                                                 [
                                                     -3.613570879452211,
                                                     52.914874846696407
                                                 ],
                                                 [
                                                     -3.613483558145237,
                                                     52.914887717658587
                                                 ],
                                                 [
                                                     -3.613447724931779,
                                                     52.914883710224053
                                                 ],
                                                 [
                                                     -3.613361228232022,
                                                     52.914836352206109
                                                 ],
                                                 [
                                                     -3.613300391924234,
                                                     52.914842570966307
                                                 ],
                                                 [
                                                     -3.61329450746489,
                                                     52.914882196373199
                                                 ],
                                                 [
                                                     -3.61318978978586,
                                                     52.914948330696923
                                                 ],
                                                 [
                                                     -3.613145732098033,
                                                     52.914960612861641
                                                 ],
                                                 [
                                                     -3.613051667810506,
                                                     52.914993347376594
                                                 ],
                                                 [
                                                     -3.613006085558335,
                                                     52.915047083621836
                                                 ],
                                                 [
                                                     -3.612848733047341,
                                                     52.915095956440659
                                                 ],
                                                 [
                                                     -3.612775994124337,
                                                     52.915138287727721
                                                 ],
                                                 [
                                                     -3.61269027289979,
                                                     52.915194276149684
                                                 ],
                                                 [
                                                     -3.612643884134505,
                                                     52.915265909329143
                                                 ],
                                                 [
                                                     -3.612576491856825,
                                                     52.915372968805016
                                                 ],
                                                 [
                                                     -3.612512844867033,
                                                     52.915422366889956
                                                 ],
                                                 [
                                                     -3.612353381490801,
                                                     52.915493737059371
                                                 ],
                                                 [
                                                     -3.612202768246321,
                                                     52.915522744333337
                                                 ],
                                                 [
                                                     -3.612173479306381,
                                                     52.915615715532397
                                                 ],
                                                 [
                                                     -3.612131235850774,
                                                     52.915719737184595
                                                 ],
                                                 [
                                                     -3.612061303593431,
                                                     52.915758434717119
                                                 ],
                                                 [
                                                     -3.611971498371727,
                                                     52.915863011959082
                                                 ],
                                                 [
                                                     -3.611857282637803,
                                                     52.915950843416674
                                                 ],
                                                 [
                                                     -3.611675211920552,
                                                     52.916014520828853
                                                 ],
                                                 [
                                                     -3.611553453368463,
                                                     52.916061110831762
                                                 ],
                                                 [
                                                     -3.611146609571705,
                                                     52.916276942377294
                                                 ],
                                                 [
                                                     -3.61091528569266,
                                                     52.916338590556492
                                                 ],
                                                 [
                                                     -3.610768437162702,
                                                     52.916346873620235
                                                 ],
                                                 [
                                                     -3.610664978552941,
                                                     52.916324908322309
                                                 ],
                                                 [
                                                     -3.610602491364651,
                                                     52.916323059536964
                                                 ],
                                                 [
                                                     -3.610565460446567,
                                                     52.916369398533874
                                                 ],
                                                 [
                                                     -3.610491452157994,
                                                     52.916460279510957
                                                 ],
                                                 [
                                                     -3.610299687791176,
                                                     52.916461081601405
                                                 ],
                                                 [
                                                     -3.610079829298508,
                                                     52.91658719376133
                                                 ],
                                                 [
                                                     -3.610004919316347,
                                                     52.916693455492833
                                                 ],
                                                 [
                                                     -3.609987923621662,
                                                     52.916717952383351
                                                 ],
                                                 [
                                                     -3.609911376808576,
                                                     52.916780106662877
                                                 ],
                                                 [
                                                     -3.609846976228613,
                                                     52.916845690561921
                                                 ],
                                                 [
                                                     -3.609718902142013,
                                                     52.916923822063374
                                                 ],
                                                 [
                                                     -3.60967925444443,
                                                     52.916975678495575
                                                 ],
                                                 [
                                                     -3.609672400431788,
                                                     52.917071940162032
                                                 ],
                                                 [
                                                     -3.60965947935705,
                                                     52.917126939660967
                                                 ],
                                                 [
                                                     -3.609629642352281,
                                                     52.917201941581808
                                                 ],
                                                 [
                                                     -3.609649145326145,
                                                     52.917288049355001
                                                 ],
                                                 [
                                                     -3.609509304532867,
                                                     52.917366340084698
                                                 ],
                                                 [
                                                     -3.609391148232636,
                                                     52.917430855025714
                                                 ],
                                                 [
                                                     -3.609237511674819,
                                                     52.917497647731238
                                                 ],
                                                 [
                                                     -3.609150983221262,
                                                     52.91753207414213
                                                 ],
                                                 [
                                                     -3.609091863373239,
                                                     52.917581409000206
                                                 ],
                                                 [
                                                     -3.609007264552882,
                                                     52.917585251285118
                                                 ],
                                                 [
                                                     -3.608897461588253,
                                                     52.917593929163019
                                                 ],
                                                 [
                                                     -3.608781546215341,
                                                     52.917556852020937
                                                 ],
                                                 [
                                                     -3.608740060317119,
                                                     52.917559212003738
                                                 ],
                                                 [
                                                     -3.608665726012439,
                                                     52.917562015987123
                                                 ],
                                                 [
                                                     -3.608592046438289,
                                                     52.917579191867553
                                                 ],
                                                 [
                                                     -3.608546827325027,
                                                     52.917603261665121
                                                 ],
                                                 [
                                                     -3.608406149028981,
                                                     52.917741780037986
                                                 ],
                                                 [
                                                     -3.608299131065608,
                                                     52.917822320997928
                                                 ],
                                                 [
                                                     -3.608166346197502,
                                                     52.917852878812113
                                                 ],
                                                 [
                                                     -3.607963717453265,
                                                     52.917881686791517
                                                 ],
                                                 [
                                                     -3.607847432834259,
                                                     52.917917414111663
                                                 ],
                                                 [
                                                     -3.607274543982377,
                                                     52.918150848652438
                                                 ],
                                                 [
                                                     -3.607098426664448,
                                                     52.918213449440778
                                                 ],
                                                 [
                                                     -3.606916697811982,
                                                     52.918127828988247
                                                 ],
                                                 [
                                                     -3.60672299518519,
                                                     52.918076524207017
                                                 ],
                                                 [
                                                     -3.60653995528951,
                                                     52.918034960565059
                                                 ],
                                                 [
                                                     -3.606381660384996,
                                                     52.918019125605916
                                                 ],
                                                 [
                                                     -3.606092002339309,
                                                     52.917986193645291
                                                 ],
                                                 [
                                                     -3.605842802657349,
                                                     52.917966194851019
                                                 ],
                                                 [
                                                     -3.605588921641329,
                                                     52.917938979413414
                                                 ],
                                                 [
                                                     -3.605082935197968,
                                                     52.917849650639269
                                                 ],
                                                 [
                                                     -3.604743761239908,
                                                     52.917807497977456
                                                 ],
                                                 [
                                                     -3.60448214310785,
                                                     52.917773284221433
                                                 ],
                                                 [
                                                     -3.604286798593854,
                                                     52.917800189462163
                                                 ],
                                                 [
                                                     -3.604177970385996,
                                                     52.917871763562367
                                                 ],
                                                 [
                                                     -3.604065869791086,
                                                     52.917977623813975
                                                 ],
                                                 [
                                                     -3.603987969908973,
                                                     52.918245609823011
                                                 ],
                                                 [
                                                     -3.60395736988847,
                                                     52.918303634374375
                                                 ],
                                                 [
                                                     -3.603783462255254,
                                                     52.918465963352041
                                                 ],
                                                 [
                                                     -3.603653007181233,
                                                     52.918519853876127
                                                 ],
                                                 [
                                                     -3.603293252049628,
                                                     52.918644335859014
                                                 ],
                                                 [
                                                     -3.602390069960534,
                                                     52.918838076129134
                                                 ],
                                                 [
                                                     -3.601736851681922,
                                                     52.918953031314153
                                                 ],
                                                 [
                                                     -3.60157692787362,
                                                     52.919012709283805
                                                 ],
                                                 [
                                                     -3.601264515954469,
                                                     52.919250600473283
                                                 ],
                                                 [
                                                     -3.601068137316491,
                                                     52.919292884024784
                                                 ],
                                                 [
                                                     -3.600961524908663,
                                                     52.91930510581853
                                                 ],
                                                 [
                                                     -3.600905049129964,
                                                     52.91930676607786
                                                 ],
                                                 [
                                                     -3.600797409241862,
                                                     52.919291139911621
                                                 ],
                                                 [
                                                     -3.600489541477785,
                                                     52.919170270587564
                                                 ],
                                                 [
                                                     -3.599568573991104,
                                                     52.918679277678628
                                                 ],
                                                 [
                                                     -3.599254808655796,
                                                     52.918561180786135
                                                 ],
                                                 [
                                                     -3.599072520249992,
                                                     52.918456681835885
                                                 ],
                                                 [
                                                     -3.598847428609619,
                                                     52.91832211107949
                                                 ],
                                                 [
                                                     -3.598577158388572,
                                                     52.918092968291816
                                                 ],
                                                 [
                                                     -3.598447089208141,
                                                     52.917954421641149
                                                 ],
                                                 [
                                                     -3.598126189906665,
                                                     52.917599142854947
                                                 ],
                                                 [
                                                     -3.597864012676176,
                                                     52.91734643223063
                                                 ],
                                                 [
                                                     -3.597403349859201,
                                                     52.916955284397503
                                                 ],
                                                 [
                                                     -3.597160729615208,
                                                     52.916747246931514
                                                 ],
                                                 [
                                                     -3.596906171490469,
                                                     52.916498026060886
                                                 ],
                                                 [
                                                     -3.59629064177859,
                                                     52.915816766958748
                                                 ],
                                                 [
                                                     -3.595385623830877,
                                                     52.914745642653706
                                                 ],
                                                 [
                                                     -3.595003968249786,
                                                     52.914397463921127
                                                 ],
                                                 [
                                                     -3.594653454404275,
                                                     52.914085715056075
                                                 ],
                                                 [
                                                     -3.593702471360764,
                                                     52.913136529351604
                                                 ],
                                                 [
                                                     -3.593649607337005,
                                                     52.913076032243517
                                                 ],
                                                 [
                                                     -3.593597463915119,
                                                     52.913031794186836
                                                 ],
                                                 [
                                                     -3.593522815143383,
                                                     52.912982464826221
                                                 ],
                                                 [
                                                     -3.593436419704151,
                                                     52.912940483417444
                                                 ],
                                                 [
                                                     -3.593247979667065,
                                                     52.912871109343733
                                                 ],
                                                 [
                                                     -3.59256693417839,
                                                     52.912546711990601
                                                 ],
                                                 [
                                                     -3.592328149134891,
                                                     52.912405122268673
                                                 ],
                                                 [
                                                     -3.592251966845803,
                                                     52.912354014630814
                                                 ],
                                                 [
                                                     -3.590864333506582,
                                                     52.911214639242218
                                                 ],
                                                 [
                                                     -3.589800062463338,
                                                     52.910418922018806
                                                 ],
                                                 [
                                                     -3.589486498265113,
                                                     52.910139917483846
                                                 ],
                                                 [
                                                     -3.589343278453989,
                                                     52.909965585917575
                                                 ],
                                                 [
                                                     -3.589328999387594,
                                                     52.909940611521648
                                                 ],
                                                 [
                                                     -3.589061987016434,
                                                     52.909553131448796
                                                 ],
                                                 [
                                                     -3.58867055410338,
                                                     52.909300332153869
                                                 ],
                                                 [
                                                     -3.588565415035786,
                                                     52.909231634443486
                                                 ],
                                                 [
                                                     -3.58810873490187,
                                                     52.908981504105995
                                                 ],
                                                 [
                                                     -3.587099041693318,
                                                     52.908495197390792
                                                 ],
                                                 [
                                                     -3.585991922264502,
                                                     52.909533053546831
                                                 ],
                                                 [
                                                     -3.584118661631934,
                                                     52.909341362514546
                                                 ],
                                                 [
                                                     -3.584022488261405,
                                                     52.908254868805308
                                                 ],
                                                 [
                                                     -3.583912508010954,
                                                     52.908093568305809
                                                 ],
                                                 [
                                                     -3.583941946130176,
                                                     52.907962854982266
                                                 ],
                                                 [
                                                     -3.583484748873213,
                                                     52.907902443028249
                                                 ],
                                                 [
                                                     -3.583226917215567,
                                                     52.907845573138623
                                                 ],
                                                 [
                                                     -3.583025329559501,
                                                     52.907784448596942
                                                 ],
                                                 [
                                                     -3.582852075646584,
                                                     52.907720249009245
                                                 ],
                                                 [
                                                     -3.582566484542213,
                                                     52.907557693439571
                                                 ],
                                                 [
                                                     -3.582292611276868,
                                                     52.907346537173218
                                                 ],
                                                 [
                                                     -3.582038914372637,
                                                     52.907117046523183
                                                 ],
                                                 [
                                                     -3.581729249053997,
                                                     52.906862237189905
                                                 ],
                                                 [
                                                     -3.581894676196662,
                                                     52.906869920334927
                                                 ],
                                                 [
                                                     -3.58245616320258,
                                                     52.906936138225632
                                                 ],
                                                 [
                                                     -3.583068790057157,
                                                     52.907016142468485
                                                 ],
                                                 [
                                                     -3.583573197281124,
                                                     52.907066938927152
                                                 ],
                                                 [
                                                     -3.583842805359754,
                                                     52.907080419624627
                                                 ],
                                                 [
                                                     -3.584300243477655,
                                                     52.907103977751191
                                                 ],
                                                 [
                                                     -3.584504855838623,
                                                     52.907080040864344
                                                 ],
                                                 [
                                                     -3.584543066339765,
                                                     52.907075572641915
                                                 ],
                                                 [
                                                     -3.585218816398156,
                                                     52.90692994147377
                                                 ],
                                                 [
                                                     -3.586007485481788,
                                                     52.906784506605291
                                                 ],
                                                 [
                                                     -3.58650082318768,
                                                     52.906693433076235
                                                 ],
                                                 [
                                                     -3.586754341047496,
                                                     52.906592081146961
                                                 ]
                                             ]
                                         ]
                                     ]
                 }
}